CATEGORY,K_NAME,E_NAME,LNG,LAT,GU,DONG,K_DESCRIBE,E_DESCRIBE,TEL,IMG_URL
사찰,봉은사,Bongeunsa Temple,127.0573766,37.514852,Gangnam-gu,Samseong1-dong,"서울특별시 강남구 수도산(修道山)에 있는 남북국시대 통일신라의 승려 연회국사가 창건한 사찰이다. 대한불교조계종 직할교구 본사 조계사의 말사이다. 이 절은 794년(원성왕 10)에 연회국사(緣會國師)가 창건하여 견성사(見性寺)라 하였다. 그 뒤 고려시대의 사적은 전해지지 않고 있다. 1498년(연산군 4)에 정현왕후(貞顯王后)가 성종의 능인 선릉(宣陵)을 위하여 능의 동편에 있던 이 절을 크게 중창하고, 절 이름을 봉은사라고 개칭하였다. 1501년(연산군 7) 나라에서 절에 왕패(王牌)를 하사하였다.","This temple was built by Yeonhoe, a Buddhist monk from the Unified Silla Kingdom, in Sudosan Mountain, Gangnam-gu, Seoul. It is a branch temple of Jogye Temple, the headquarters of the Korean Buddhist Jogye Order. This temple was founded by National Preceptor Yeonhoe in 794 (10th year of King Wonseong's reign) and was called Gyeonseongsa. Since then, no historical records of the Goryeo Dynasty have been handed down. In 1498 (the 4th year of Yeonsan-gun), Queen Jeonghyeon (the 4th year of King Yeongsan's reign) reconstructed this temple, which was located on the east side of the tomb, for Seonneung, the tomb of King Seongjong, and renamed it Bongeunsa. In 1501 (the 7th year of the reign of King Yeonsan-gun), a Buddhist temple was granted a royal tablet.",02-511-6070,http://encykorea.aks.ac.kr/Contents/GetImage?id=ac0993b4-41ba-45c2-bf78-a6aa6bba3ab4&w=260&h=260&fit=w&clip=1
사찰,불국사,Bulguksa Temple,127.074907,37.477353,Gangnam-gu,Irwonbon-dong,서울특별시 강남구 대모산에 있는 한국불교태고종 소속의 사찰이다. 고려 공민왕 2년에 진정국사가 창건하였다.,"It is a temple belonging to the Korean Buddhist Taegojong located in Daemosan Mountain, Gangnam-gu, Seoul. In the second year of King Gongmin of Goryeo, it was founded by State Preceptor Chung.",02-445-4543,https://lh5.googleusercontent.com/p/AF1QipMUBQjgkHqM67WQpoiwTCa9gWxAj_RNQ8tz9GXC=w408-h272-k-no
사찰,화계사,Hwagyesa Temple,127.0073066,37.6326445,Gangbuk-gu,Suyu1-dong,"서울특별시 강북구에 있는 조선전기 승려 신월선사가 창건한 사찰이다. 대한불교조계종 직할교구 본사인 조계사(曹溪寺)의 말사이다. 1522년(중종 17) 신월선사(信月禪師)가 창건하였다. 원래는 고려 광종 때 탄문(坦文)·법인대사(法印大師)가 지금의 화계사 근처인 삼각산 부허동(浮虛洞)에 보덕암(普德庵)을 창건하였는데, 1522년 신월이 서평군(西平君) 이공(李公)과 협의하여 지금의 화계사 자리로 옮기고 법당 3처(處)와 스님들의 요사(寮舍) 50칸을 지어 화계사라고 고쳐 불렀다고 한다.","This temple was founded by Sinwolseonsa, a Buddhist monk of the Joseon Dynasty, in Gangbuk-gu, Seoul. It is a branch temple of Jogye Temple, the headquarters of the Jogye Order of Korean Buddhism. It was founded by Sinwolseonsa Temple in 1522 (the 17th year of King Jungjong's reign). Originally, Tanmun and Beopjeongsa Temple established Baodeokam in Buhe-dong, Samgaksan Mountain near Hwagye Temple during the reign of King Gwangjong of the Goryeo Dynasty. In 1522, Sinwol moved to the current Hwagye Temple in consultation with Yi Gong of Seopyeong-gun and moved to the current Hwagye Temple site, three Buddhist temples, and 50 monks.",02-902-2663,http://encykorea.aks.ac.kr/Contents/GetImage?id=171f6846-5b4a-47be-863b-b382577d7102&w=260&h=260&fit=w&clip=1
사찰,삼성암,Samseongam Hermitage,127.0011599,37.6293331,Gangbuk-gu,Suyu1-dong,"서울특별시 강북구 삼각산(三角山)에 있는 조선후기 신도 고상진이 창건한 암자이다. 대한불교조계종 직할교구 본사인 조계사(曹溪寺)의 말사이다. 1872년에 신도 고상진(高尙鎭)이 창건하여 ‘소란야(小蘭若)’라고 하였다. 창건에 앞서 한양에 살았던 신도 박선묵(朴銑默)과 유성종(劉聖鐘)·서윤구(徐潤龜)·고상진·이원기(李元基)·장윤구(張潤九)·유재호(劉在護) 등 7인은 1870년 봄에 함께 발심(發心)하여 현재의 절에 있는 천태굴(天台窟)에서 3일 동안 독성기도(獨聖祈禱)를 마치고 절의 창건을 약속하였는데, 그 약속을 이행하여 1872년에 창건한 것이다. 그 뒤 1881년에 박선묵이 독성각(獨聖閣)을 신축하고 절 이름을 삼성암으로 바꾸었으며, 1936년에는 동운(東雲)이 신도 김용태(金容泰)의 시주를 얻어서 칠성각(七星閣)을 중건하였다.","The hermitage was founded by Go Sang-jin, a Shindo of the late Joseon Dynasty, in Samgaksan Mountain, Gangbuk-gu, Seoul. It is a branch temple of Jogye Temple, the headquarters of the Jogye Order of Korean Buddhism. Founded in 1872 by Go Sang-jin, a Shindo, it was called ""Soranya."" Prior to the founding of the temple, seven believers, including Park Seon-muk, Yoo Seong-jong, Seo Yoon-gu, Ko Sang-jin, Lee Won-ki, Jang Yoon-gu, and Yoo Jae-ho, who lived in Hanyang, joined together in the spring of 1870, and promised to pray for toxicity for three days at Cheontaegul in the current temple. In 1881, Park Seon-muk built Dokseonggak and renamed the temple Samseongam. In 1936, Dongun reconstructed Chilseonggak by obtaining a poem from Kim Yong-tae, a believer.",02-988-1996,http://encykorea.aks.ac.kr/Contents/GetImage?id=a6a50aa2-2e90-43dc-9b2f-e038b676ed61&w=260&h=260&fit=w&clip=1
사찰,도선사,Doseonsa Temple,126.9895737,37.6551163,Gangbuk-gu,Ui-dong,"서울특별시 강북구 북한산(北漢山)에 있는 남북국시대 통일신라의 승려 도선이 창건한 사찰이다. 대한불교조계종 직할교구 본사인 조계사(曹溪寺)의 말사이다. 862년(경문왕 2) 도선(道詵)이 창건하였다. 도선은 이곳의 산세가 1,000년 뒤의 말법시대(末法時代)에 불법을 다시 일으킬 곳이라고 예견하고 절을 창건한 뒤, 큰 암석을 손으로 갈라서 마애관음보살상을 조각하였다고 한다.","The temple was founded by Doseon, a Buddhist monk from the Unified Silla Kingdom during the period of the two Koreas, in Bukhansan Mountain, Gangbuk-gu, Seoul. It is a branch temple of Jogye Temple, the headquarters of the Jogye Order of Korean Buddhism. It was founded by Doseon in 862 (the 2nd year of King Gyeongmun's reign). Doseon is said to have carved the Maaegwaneum Bodhisattva by hand, predicting that the mountain area here would be a place to reignite the illegality of the Buddhist Monk 1,000 years later.",02-993-3161,http://encykorea.aks.ac.kr/Contents/GetImage?id=4d7861c2-20c2-4e32-85d2-5bf59fda445d&w=260&h=260&fit=w&clip=1
사찰,보광사,Bogwangsa Temple,127.0034091,37.650025,Gangbuk-gu,Insu-dong,서울특별시 강북구 우이동 산63-9에 있는 조계종 소속 사찰이다.,"It is a temple belonging to the Jogye Order located in San 63-9 Udong, Gangbuk-gu, Seoul.",02-993-3808,
사찰,용덕사,Yongdeoksa Temple,127.0000528,37.671272,Gangbuk-gu,Ui-dong,서울특별시 강북구 우이동 산68-1에 있는 조계종 소속 사찰이다.,"It is a temple belonging to the Jogye Order located in Udong Mountain 68-1 in Gangbuk-gu, Seoul.",02-993-1767,
사찰,본원정사,Bonwonjeongsa Temple,127.006482,37.638112,Gangbuk-gu,Insu-dong,"도심과 가까운 곳에 자리 잡고 있어서 불자뿐만 아니라 등산객, 일반인들도 방문하기 편한 사찰이다. 화계사와 국립 4.19 민주묘지 중간에 위치되어 있는 본원정사는 1920년대 손덕선이 이곳에 절을 짓고 도성암이라 불렀다.","It is located close to the city center, making it easy for not only Buddhists but also hikers and ordinary people to visit. Located in the middle of Hwagyesa Temple and the National 4.19 Democratic Cemetery, the main temple was built by Son Deok-seon in the 1920s and was called Doseongam.",02-902-7337,https://m.blog.naver.com/PostView.nhn?blogId=hopegb&logNo=220618234444&proxyReferer=https:%2F%2Fwww.google.com%2F&view=img_1
사찰,약사사,Yaksasa Temple,126.8056248,37.583363,Gangseo-gu,Banghwa2-dong,조선후기 순조 이전까지 개화사(開花寺)로 불리다가 그 이후 약사사라 명칭이 바뀐 사찰이다. 조선후기에 쓰여진 《양천읍지》에 의하면 이 곳이 신라시대의 사찰이라 전하고 있으나 구체적으로 언제 창건되었는지는 알 수 없는 실정이다.,"It was called Gaehwasa Temple before the late Joseon Dynasty, but has since been renamed Yaksa Temple. According to the ""Yangcheon-eupji,"" which was written in the late Joseon Period, it is unknown when the temple was built.",02-2662-2551,
사찰,미타사,Mitasa Temple,126.8031807,37.5806689,Gangseo-gu,Banghwa2-dong,"서울특별시 강서구 미타사에 있는 조선시대의 석불입상이다. 서울특별시 유형문화재 제249호. 불상의 높이 340㎝, 어깨 폭 92㎝. 석불입상은 원래 요사채로 사용되던 건물 안에 봉안되어 있었는데, 지금은 야외에 모셔져 있다. 미타사 석불입상에 대한 기록이 전혀 남아 있지 않아 석불의 성격과 조성 배경은 구체적으로 알 수 없다. 원래의 팔각연화대좌는 따로 보관되어 있으며, 불상을 받치고 있는 대좌는 근년에 후보한 것이다. 석불입상이 언제부터 미타사에 봉안되어 있었는지에 대해서도 알 수 없다.","The Stone Standing Buddha of the Joseon Dynasty located in Mitasa Temple, Gangseo-gu, Seoul. Seoul Tangible Cultural Heritage No. 249. The Buddha statue was 340 cm high and 92 cm wide. The Stone Standing Buddha was originally enshrined in a building used as a Yosachae, but is now enshrined outdoors. There is no record of the standing stone Buddha statue of Mitasa Temple, so the nature of the stone Buddha and the background of the statue are unknown. The original octagonal lotus pedestal is kept separately, and the pedestal supporting the Buddha statue was nominated in recent years. It is also unknown when the Stone Standing Buddha was enshrined in Mitasa Temple.",02-2662-4736,
사찰,법성사,Beobseongsa Temple,126.8569265,37.54273,Gangseo-gu,Deungchon2-dong,"강서구 등촌동 봉제산 자락에 있는 문화체육관광부 지정 전통 사찰이다. 대웅전, 극락전, 산신각, 요사, 연화원등이 있으며 석조물로는 관음보살입상과 오래된 5층 석탑이 있고 석등이 있다.","It is a traditional temple designated by the Ministry of Culture, Sports and Tourism at the foot of Bongje Mountain in Deungchon-dong, Gangseo-gu. Daeungjeon Hall, Geungnakjeon Hall, Sanshingak Pavilion, Yosa Shrine, and Yeonhwawon. The stone structures include Gwaneum Bodhisattva statue, an old five-story stone pagoda, and a stone lantern.",02-2651-0805,
사찰,관음사,Gwaneumsa Temple,126.976613,37.4677946,Gwanak-gu,Namhyeon-dong,"서울특별시 관악구 관악산(冠岳山)에 있는 남북국시대 통일신라의 승려 도선이 창건한 사찰이다. 대한불교조계종 직할교구 본사인 조계사의 말사이다. 895년(진성여왕 9) 도선(道詵)이 창건하고 수도하였는데, 고려시대에는 어떠했는지 기록이 없어 잘 알 수 없다. 그러나 조선시대에서는 전 기간에 걸쳐 관음사가 존재했음을 『신증동국여지승람』을 비롯해서 『범우고』·『가람고』·『여지도서』 등의 기록을 통해 알 수 있다.","This temple was built by Doseon, a Buddhist monk from the Unified Silla Kingdom, in Gwanaksan Mountain, Gwanak-gu, Seoul. It is a branch temple of Jogye Temple, the head office of the Jogye Order of Korean Buddhism. It was founded and capitalized by Doseon in 895 (9th year of King Jinseong's reign), but there is no record of how it was during the Goryeo Dynasty. However, records such as ""Sinjeungdonggukyeoji Seungram"" and ""Beomuga"", ""Garamgo"" and ""Yeodisuseo"" show that Gwaneumsa Temple existed throughout the Joseon Dynasty.",02-582-8609,http://encykorea.aks.ac.kr/Contents/GetImage?id=c8f418e6-108b-4934-8c2e-6f1a94ff5d43&w=260&h=260&fit=w&clip=1
사찰,약수사,Yaksuam Hermitage,127.0154365,37.6222787,Gwanak-gu,Samseong-dong,"서울특별시 관악구에 있는 조선시대 에 창건된 사찰이다. 서울의 관악산에 위치한 약수사(藥水寺)는 약수암으로도 불리며 비구니 도량이다. 약수사는 조선 초인 1421년(세종 3)에 창건되었다는 설도 있지만, 『봉은본말사지(奉恩本末寺誌)』에 의하면 조선 시대에 김(金) 처사가 초가삼간을 짓고 수행한 것이 절의 시초였다고 되어있다. 18세기 말 정조의 명에 의해 전국사찰의 현황을 조사한 『범우고(梵宇攷)』에도 관악산의 사찰로 관악사(冠岳寺), 관음사(觀音寺)는 나오지만 약수사는 보이지 않는다. 작은 암자였던 약수사가 사세를 키우게 된 것은 1880년(고종 17) 명성황후가 법당을 건립하면서부터이다. 1923년에 화재가 나서 법당을 중건하였고 1934년에는 칠성각이 지어졌으며 1960년대와 1990년대에도 중창 불사가 있었다.","It was built during the Joseon Dynasty in Gwanak-gu, Seoul. Yaksu Temple, located on Gwanaksan Mountain in Seoul, is also called Yaksuam Rock and has a bhikkhuni. Some say Yaksu Temple was founded in 1421 (the 3rd year of King Sejong's reign), but according to the ""Bongunbonmalsa Temple Site,"" it was the beginning of the temple's construction and performance during the Joseon Dynasty. In the ""Bumgowo,"" which surveyed the current status of Buddhist temples nationwide by King Jeongjo's order in the late 18th century, the temples of Gwanaksan Mountain include Gwanaksa Temple and Gwaneumsa Temple, but Yaksu Temple is not visible. Mineral water, a small temple, the sase to raise the child is in 1880, (King Gojong 17) Empress Myeongseong build the statue of Buddha, regarding the ownership. In 1923, a fire broke out and reconstructed the courthouse. In 1934, Chilseonggak was built. In the 1960s and 1990s, there was also a Buddhist temple in Jungchang.",02-877-7514,
사찰,자운암,Jaunam Hermitage,126.9538519,37.4489926,Gwanak-gu,Daehak-dong,"서울대학교 구내 신공학관 뒤에 있는 골짜기 중턱에 위치하며 무학대사가 조선 태조 5년(1396년)에 창건한 절이다. 영조 13년(1734년)에 다시 중수했다는 기록이 있으며 성종이 어머니를 위해 만든 위패가 아직까지 전해져 오고 있다고 하며, 창건 당시에는 자운암(紫雲庵)이라 하던 것을 영조 13년에 대효선사가 자운암(慈雲庵)이라 개명하였다.","Located in the middle of a valley behind the Seoul National University's New Engineering Museum, it was founded by Master Muhak in 1396 (the 5th year of King Taejo's reign). It is said that it was rebuilt in 1734 (the 13th year of King Yeongjo's reign), and that a memorial tablet made by King Seongjong for his mother was still handed down. At the time of its foundation, the name of the temple was changed to Jaunam in the 13th year of King Yeongjo's reign.",02-882-3839,https://www.gwanak.go.kr/images/gwanak/m5/culture/legacy/temple_asset3.jpg
사찰,성주암,Seongjuam Hermitage,126.9427566,37.457462,Gwanak-gu,Daehak-dong,"성주암은 정확한 역사적 문헌이 없어 고증에 어려움은 있지만 구전에 의하면 신라시대 원효대사가 창건한 이래 각진국사, 서산대사, 처용대사등의 고승들이 정진하던 고찰로서 과거 관악산 내 삼막사, 망월암, 호압사, 반월암, 염불암, 상불암, 안양사 등 관악산내 19암자중 하나로서 사찰경내지에서 출토된 그릇파편과 명문기와 중 태정원년(太正元年)으로 표기된 다수의 기와로 보아 고려 충숙왕 2년을 전후해서 도량이 번성하였던 것으로 추정된다.","Seongjuam is difficult to prove due to lack of accurate historical literature, but according to the oral tradition, it has been dedicated to ancient monks such as Gakjin Guksa Temple, Seosan Temple, Cheoyongsa Temple, and others since it was founded by Wonhyo during the Silla Dynasty. It is one of the 19 female temples in Gwanaksan Mountain, including Sammaksa Temple, Mangwolam Temple, Hoapsa Temple, Banwolam, Yeombulam, Sangbulam, and Anyang Temple, and pottery, and pottery and other excavated from the temple site.",02-877-7180,https://www.gwanak.go.kr/images/gwanak/m5/culture/legacy/temple_asset4.jpg
사찰,영화사,Yeonghwasa Temple,127.098236,37.554288,Gwangjin-gu,Guui2-dong,"서울특별시 광진구 아차산(峨嵯山)에 있는 남북국시대 통일신라의 승려 의상이 창건한 사찰이다. 대한불교조계종 직할교구 본사인 조계사(曹溪寺)의 말사이다. 672년(문무왕 12) 의상(義湘)이 용마봉(龍馬峰) 아래 창건하고 화양사(華陽寺)라 하였으며, 1395년(태조 4) 태조가 이 절의 등불이 궁성(宮城)에까지 비친다고 하여 산 아래의 군자동으로 옮겨 짓게 하였다. 그 뒤 다시 중곡동으로 이건하였다가 1907년에 현 위치로 이전하면서 영화사라 하였고, 1909년에 도암(道庵)이 산신각(山神閣)과 독성각(獨聖閣)을 건립하여 오늘에 이르고 있다.","This temple was built by a Buddhist monk named Uisang of Unified Silla during the period of the two Koreas in Achasan Mountain, Gwangjin-gu, Seoul. It is a horse temple of Jogye Temple, the headquarters of the Jogye Order of Korean Buddhism. In 672 (the 12th year of King Munmu's reign), Uisang (the 12th year of King Munmu's reign) was founded under Yongma Peak and called Hwayangsa Temple. In 1395 (the 4th year of King Taejo's reign), the lanterns of this temple were even reflected in Gungseong, so the temple was moved to Gunja-dong below the mountain. After moving to Junggok-dong, it was relocated to the current location in 1907, and in 1909, Doam built Sanshingak and Dokseonggak, which are now being continued to the present day.",02-444-4321,http://encykorea.aks.ac.kr/Contents/GetImage?id=6df88d39-b336-41a4-8722-85d15bd3594c&w=260&h=260&fit=w&clip=1
사찰,호압사,Hoapsa Temple,126.920558,37.451697,Geumcheon-gu,Siheung2-dong,"서울특별시 금천구 삼성산(三聖山)에 있는 조선전기 제3대 태종의 명으로 창건한 사찰이다. 대한불교조계종 직할교구 본사인 조계사(曹溪寺)의 말사이다. 이 절은 1407년(태종 7) 왕명에 의하여 창건되었다. 태종은 이 절이 있는 삼성산이 호랑이 형국을 하고 있어 과천과 한양에 호환(虎患)이 많다는 술사(術師)의 말을 듣고, 호랑이의 살기를 누르기 위하여 절을 창건하고 호압사라 하였다고 한다. 그 뒤 1841년(헌종 7) 4월에 의민(義旻)이 상궁 남씨(南氏)와 유씨(兪氏)의 시주를 얻어 법당을 중창하였고, 1935년에 주지 만월(滿月)이 약사전 6칸을 중건하여 오늘에 이르고 있다.","The temple was built under the order of the third King Taejong of the Joseon Dynasty in Samseongsan Mountain, Geumcheon-gu, Seoul. It is a branch temple of Jogye Temple, the headquarters of the Jogye Order of Korean Buddhism. This temple was founded by the king's order in 1407 (the 7th year of King Taejong's reign). It is said that King Taejong founded the temple and called it Hoabsa Temple to suppress the life of tigers after hearing that Sulsa, which is said to be compatible with Gwacheon and Hanyang because Samseongsan Mountain, where the temple is located, has a tiger-like a tiger. After that, in April 1841 (the 7th year of King Heonjong's reign), Uimin reconstructed the court under the auspices of Nam Clan and Yu Clan. In 1935, Manwol, the governor of the province, reconstructed six briefs and continued to this day.",02-803-4779,
사찰,학림사,Hangnimsa Temple,127.0773454,37.6821058,Nowon-gu,Sanggye3.4-dong,"서울특별시 노원구 수락산(水落山)에 있는 남북국시대 통일신라의 승려 원효가 창건한 사찰이다. 대한불교조계종 직할교구 본사인 조계사(曹溪寺)의 말사이다. 671년(문무왕 11) 원효(元曉)가 창건하였다. 고려 공민왕 때 나옹(懶翁)이 이 절에 머물며 수도하였다. 그러나 1597년(선조 30) 정유재란 때 병화로 소실한 채 있던 것을 1624년(인조 2) 무공(無空)이 중수하였다. 1780년(정조 4) 최백(崔伯)과 궤징(軌澄)이 중수하였고 단청했으며, 1830년(순조 30)에는 추담(秋潭)이 중창하였다.","This temple was built by Wonhyo, a Buddhist monk from the Unified Silla Kingdom during the period of the two Koreas, in Suraksan Mountain, Nowon-gu, Seoul. It is a branch temple of Jogye Temple, the headquarters of the Jogye Order of Korean Buddhism. It was founded by Wonhyo in 671 (the 11th year of King Munmu's reign). During the reign of King Gongmin of Goryeo, Naong stayed in this temple and made his capital. However, in 1624 (the 2nd year of King Injo's reign), Mu Gong reconstructed the remains of Jeong Yu-jae, who had been lost due to disease during the Japanese invasion of Korea in 1597 (the 30th year of King Seonjo's reign). In 1780 (the 4th year of King Jeongjo's reign), Choe Baek and Gu Jing were reconstructed and dancheong, and in 1830 (the 30th year of King Sunjo's reign), Chudam was reconstructed.",02-936-1700,http://encykorea.aks.ac.kr/Contents/GetImage?id=f6dd4901-b1c0-4e81-b507-480b766046d8&w=260&h=260&fit=w&clip=1
사찰,용굴암,Yongguram Heritage,127.0802379,37.6795342,Nowon-gu,Sanggye3.4-dong,"용굴암은 수락산에 자리한 여러 사찰 가운데 가장 정상에 가까운 곳에 있는 사찰로 이름에서 드러나듯 커다란 자연동굴이 하나 있다. 이 동굴은 용굴암이 처음 시작된 곳으로 현재 석가모니불과 16나한이 봉안되어 있어 나한도량임을 나타내고 있다. 100여 년 전 지배체제로부터 배척당하던 수행자들은 깊은 산으로 숨을 수밖에 없었고, 인적이 드문 이 동굴은 피신처와 수행처로 적지가 아닐 수 없었던 것이다. 한때는 흥선대원군의 섭정에 밀려난 명성황후가 피신하여 지내면서 기도를 하였는데, 그 인연으로 용굴암은 대대적인 중건을 하여 사찰로서 모습을 갖추게 되었다.","Yongguram is the closest temple to the top of Suraksan Mountain. As its name suggests, there is a large natural cave. This cave was first started by Yongguram Rock, and is currently enshrined in Sakyamuni Buddha and 16 arhats, indicating that it is Nahandoryang. The attendants, who had been ostracized by the ruling system more than 100 years ago, had no choice but to hide in the deep mountains, and the cave, which was sparsely populated, was a suitable place for refuge and execution. At one time, pushed out to the regent Heungseon Daewongun Empress Myeongseong was evacuated to the ties that bind they did, and prayers to yongguram was massive as the Buddhist temple was reconstructed in the same look.Have.",02-937-8206,http://tong.visitkorea.or.kr/cms/resource/88/1806288_image2_1.jpg
사찰,학도암,Hakdoam Heritage,127.0897638,37.6519051,Nowon-gu,Junggyebon-dong,"서울특별시 노원구 불암산(佛巖山)에 있는 조선후기 무공이 창건한 암자이다. 학도암(鶴到庵)은 조선 후기인 1624년(인조 2) 무공(無空)이 불암산의 한 암자를 지금의 자리로 옮겨와 창건한 사찰이다. 초기의 사찰 명칭은 알 수 없지만 전하는 말에 따르면 절 주위의 불암산 경치가 너무 아름다워서 학이 이곳에 날아와 노닐었다고 하여 학도암으로 불리게 되었다고 한다. 1878년(고종 15) 벽운(碧雲)이 중창하였다. 일제강점기인 1922년 성담(聖曇)이 주지로 있을 때 산림 10여 정보(町步)를 매입하여 절을 확장하였다. 1950년의 6·25전쟁 때 절이 소실되었고, 이것을 1965년 주지 김명호가 중창하여 오늘에 이른다.","The hermitage was founded by Mugong during the late Joseon Dynasty in Bulamsan Mountain, Nowon-gu, Seoul. Hakdoam is a temple founded by Mugong in 1624 (the 2nd year of King Injo's reign) in the late Joseon Dynasty by moving a hermitage from Bulamsan Mountain to its current location. The initial name of the temple is unknown, but according to the king, the scenery of Bulamsan Mountain around the temple was so beautiful that it was called Hakdoam because a crane flew here and played. In 1878 (the 15th year of King Gojong's reign), the wall was reconstructed. In 1922, when Seongdam was the main site of the temple, the temple was expanded by purchasing about 10 forest information. The temple was destroyed during the Korean War in 1950. The temple was reconstructed by Kim Myeong-ho in 1965.",02-930-6611,http://encykorea.aks.ac.kr/Contents/GetImage?id=0ad7382b-9c22-49d1-8c58-cdf00d9c86e6&w=260&h=260&fit=w&clip=1
사찰,원통사,Wontongsa Temple,127.0108333,37.6830556,Dobong-gu,Dobong1-dong,"조선 영조 때 영의정을 지냈던 조현명(趙顯命), 서명균(徐命均) 등이 나라의 일을 이야기하며 심신을 닦았던 곳으로 당대 유학자들 사이에 명소로 이름 높았다. 현재 경내에는 조선 태조(太祖) 이성계(李成桂)가 기도하였다는 석굴이 있으며, 약사전 아래 큰 바위에는 태조가 기도를 마치던 날 천상의 상공(相公)[정승]이 되어 옥항상제를 배알하는 꿈을 꾸었다 하여 새겼다는 ‘상공암’이라는 글씨가 있다.","Cho Hyun-myung and Seo Myeong-kyun, who served as the state councilor during the reign of King Yeongjo of the Joseon Dynasty, were famous among the Confucian scholars of the time as places where they had been engaged in national affairs. Currently, there is a cave inside the temple where Yi Seong-gye, the founder of the Joseon Dynasty, prayed. On the large rock under the dictionary, there is a inscription ""Sangamam,"" which says that King Taejo dreamed of becoming a heavenly god on the day he finished praying.",02-954-9944,https://t1.daumcdn.net/cfile/tistory/9958F04D5E65756012
사찰,천축사,Cheonchuksa Temple,127.0193795,37.6942514,Dobong-gu,Dobong1-dong,"서울특별시 도봉구 도봉산(道峰山)에 있는 남북국시대 통일신라의 승려 의상이 창건한 사찰이다. 대한불교조계종 직할교구 조계사(曹溪寺)의 말사이다. 673년(문무왕 13)에 의상(義湘)이 만장봉 동북쪽 기슭에 있는 의상대(義湘臺)에서 수도할 때 현재의 위치에 절을 창건하고 옥천암(玉泉庵)이라고 하였다. 그 뒤 고려 명종 때는 영국사(寧國寺)를 창건한 뒤 이 절을 부속 암자로 삼았으며, 1398년(태조 7)함흥으로 갔다가 돌아오던 태조가 옛날 이곳에서 백일기도하던 것을 상기하여 절을 중창하고 천축사라는 사액(寺額)을 내렸다. 절 이름을 천축사라고 한 것은 고려 때 인도 승 지공(誌公)이 나옹화상(懶翁和尙)에게 이곳의 경관이 천축국의 영축산과 비슷하다고 한 데서 유래되었다고 한다.","This temple was built by a Buddhist monk named Uisang from the Unified Silla Dynasty of the two Koreas in Dobongsan Mountain, Dobong-gu, Seoul. It is a branch temple of Jogye Temple, a religious district under the direct control of the Korean Buddhist Jogye Order. In 673 (the 13th year of King Munmu's reign), when Uisangdae was capitalized at the foot of Manjangbong Peak, the temple was built in its current location and was called Okcheonam. Later, King Myeongjong of the Goryeo Dynasty founded the temple and adopted it as an auxiliary hermitage. King Taejo, who returned from Hamheung in 1398 (the 7th year of King Taejo's reign), reconstructed the temple and lowered the sarira of Cheonchuksa in remembrance of the Baekje Kingdom. The name of the temple Cheonchuksa originated from the Goryeo Dynasty when Jigong, an Indian monk, told Naonghwasang that the scenery here was similar to Yeongchuksan Mountain in Cheonchukguk.",02-954-1474,http://encykorea.aks.ac.kr/Contents/GetImage?id=c7b72e0a-f951-44ea-b0a5-bb45fe80a21e&w=260&h=260&fit=w&clip=1
사찰,만월암,Manworam Hermitage,127.0185452,37.6970751,Dobong-gu,Dobong1-dong,서울특별시 도봉구 도봉산(道峰山) 만장봉(萬丈峰)에 있는 삼국시대 신라의 승려 의상이 창건한 암자이다. 대한불교 조계종 직할교구본사인 조계사(曹溪寺)의 말사이다. 정확한 창건연대는 미상이나 신라 문무왕 때 의상(義湘)이 창건하였다고 한다.,"The hermitage was founded by a Buddhist monk named Uisang of Silla during the Three Kingdoms Period in Manjangbong Peak of Dobongsan Mountain, Dobong-gu, Seoul. It is a branch temple of Jogye Temple, the headquarters of the Jogye Order of Korean Buddhism. It is said that the exact foundation date was established by Uisang during the reign of King Munmu of Silla.",02-955-3719,http://encykorea.aks.ac.kr/Contents/GetImage?id=b0528928-a4d1-4e3d-bad7-52b4ca9a6fbd&w=260&h=260&fit=w&clip=1
사찰,청량사,Cheongnyangsa Temple,127.0477399,37.5882001,Dongdaemun-gu,Jegi-dong,청량사는 대한불교조계종 직할교구 본사인 조계사의 말사이다. 동국여지승람에는 청량사가 삼각산에 있었다고 기록되어 있다.,"Cheongnyangsa Temple is a branch temple of Jogye Temple, which is the headquarters of the Korean Buddhist Jogye Order. Dongguk Yeoji Seungram records that Cheongnyangsa Temple was located in Samgaksan Mountain.",02-967-2743,
사찰,연화사,Yeonhwasa Temple,127.0503783,37.5942549,Dongdaemun-gu,Hoegi-dong,"서울특별시 동대문구에 있는 조선전기 에 창건된 사찰이다. 연화사(蓮花寺)는 연산군의 어머니 폐비(廢妃) 윤씨의 극락왕생을 발원하기 위해 세운 사찰이다. 절 주변인 천장산(天藏山) 아래에는 윤씨의 무덤이 있었는데, 1504년(연산군 10)에 회릉(懷陵)으로 격상되었다. 그러나 1506년(연산군 10) 중종반정이 일어나 연산군이 폐위되자 회릉은 다시 회묘(懷墓)로 격하되었고 연화사 역시 쇠퇴하게 된다. 18세기 초반에 의릉(懿陵)이 절 인근에 조성되자 연화사는 다시 복구되어 의릉의 원찰로서 기능하였다.","It was built in the early Joseon Period in Dongdaemun-gu, Seoul. Yeonhwasa Temple was built to pray for the birth of the heavenly kingdom of Yun, the mother of Yeonsangun. Yun's tomb was located below Cheonjangsan Mountain near the temple, which was upgraded to Hoerung in 1504 (10th year of Yeonsan County). However, when the reign of King Jungjong occurred in 1506 (10th year of Yeongsan-gun) and Yeonsan-gun was abolished, the Hoerung Tomb was downgraded to Hoemyo, and Yeonhwasa Temple also declined. In the early 18th century, when Uirung was built near the temple, Yeonhwasa Temple was restored and served as the original temple of Uirung.",02-962-6186,
사찰,지장사,Jijangsa Temple,126.9647546,37.4986985,Dongjak-gu,Sadang2-dong,"서울특별시 동작구 동작동, 국립서울현충원 내에 있는 조계종 소속의 사찰이다.","It is a temple belonging to the Jogye Order located within the Seoul National Cemetery in Dongjak-dong, Dongjak-gu, Seoul.",02-814-5257,
사찰,사자암,Sajaam Hermitage,126.936305,37.493775,Dongjak-gu,Sangdo3-dong,서울특별시 동작구 삼성산(三聖山) 국사봉(國師峰)에 있는 조선전기 무학이 창건한 암자이다. 대한불교조계종 직할교구 본사인 조계사(曹溪寺)의 말사이다. 1396년(태조 5) 무학(無學)이 창건했다.,"The hermitage was founded by Muhak of the early Joseon Period in Guksabong Peak of Samseongsan Mountain in Dongjak-gu, Seoul. It is a branch temple of Jogye Temple, the headquarters of the Jogye Order of Korean Buddhism. It was founded by Muhak in 1396 (the 5th year of King Taejo's reign).",02-825-1046,http://encykorea.aks.ac.kr/Contents/GetImage?id=ce3f21cd-1a53-4be2-82e1-8926e2d58c9d&w=260&h=260&fit=w&clip=1
사찰,달마사,Dalmasa Temple,126.9624452,37.4987373,Dongjak-gu,Sadang2-dong,서울시 동작구에 위치하고있는 조계종 소속의 사찰이다.,"It is a temple belonging to the Jogye Order located in Dongjak-gu, Seoul.",02-815-2746,
사찰,옥천암,Okcheonam Hermitage,126.9542463,37.5969852,Seodaemun-gu,Hongeun1-dong,"서울특별시 서대문구 홍지문 부근에 있는 조선후기 명성왕후의 명으로 승려 정관이 관음전을 건립한 암자이다. 대한불교조계종 직할교구 조계사(曹溪寺)의 말사이다. 창건연대 및 창건자는 미상이며, 1868년(고종 5)에 명성황후(明成皇后)의 명으로 정관법사(淨觀法師)가 관음전(觀音殿)을 건립하여 천일기도를 올렸다.","It is a hermitage where the Buddhist monk Jeonggwan built Gwaneumjeon under the orders of Queen Myeongseong of the late Joseon Dynasty near Hongjimun Gate in Seodaemun-gu, Seoul. It is a branch temple of Jogye Temple, a religious district under the direct control of the Korean Buddhist Jogye Order. The founder and founder were unknown. In 1868 (the 5th year of King Gojong's reign), Jeonggwan Beopsa built Gwaneumjeon Hall to pray for the 1,000th day.",02-395-4031,http://encykorea.aks.ac.kr/Contents/GetImage?id=22c56ee0-4d5d-4d1c-a8c5-004be39350ca&w=260&h=260&fit=w&clip=1
사찰,봉원사,Bongwonsa Temple,126.947403,37.5719909,Seodaemun-gu,Sinchon-dong,"서울특별시 서대문구 안산(鞍山)에 있는 남북국시대 통일신라의 승려 도선이 창건한 사찰이다. 한국불교태고종의 본산이다. 889년(진성여왕 3)에 국사 도선(道詵)이 부유한 신도의 집을 희사받아 절을 창건하고 반야사(般若寺)라 하였다. 그 뒤 고려 공민왕 때에 보우(普愚)의 중건으로 대찰의 면모를 갖추었으며, 1396년(태조 5)에는 이 절에 왕의 초상화를 모신 원당(願堂) 반야암을 지어 불교탄압의 영향을 받지 않게 되었다.","The temple was founded by Doseon, a Buddhist monk of the Unified Silla Kingdom, in Ansan, Seodaemun-gu, Seoul. It is the home of the Korean Buddhist Taegojong. In 889 (the 3rd year of Queen Jinseong's reign), Doseon, a national temple, was honored with a wealthy believer's house and built a temple called Banyasa. After that, the temple was built during the reign of King Gongmin of the Goryeo Dynasty, and in 1396 (the 5th year of King Taejo's reign), the temple was not affected by the oppression of Buddhism.",02-392-3007,http://encykorea.aks.ac.kr/Contents/GetImage?id=b55f5a29-d731-47ca-b4ec-e1aa31678299&w=260&h=260&fit=w&clip=1
사찰,대성사,Daeseongsa Temple,127.0466599,37.4735474,Seocho-gu,Seocho3-dong,"서울특별시 서초구 서초동 대성사에 있는 조선 후기의 불상이다. 전체높이 62㎝, 두고(頭高) 21.5㎝, 어깨 너비 28㎝, 무릎 너비 39㎝. 서울특별시 유형문화재 제92호. 전신을 앞으로 약간 숙인 전형적인 조선 후기 목불상이다.","This is a Buddhist statue of the late Joseon Dynasty located in Daeseongsa Temple in Seocho-dong, Seocho-gu, Seoul. Overall height is 62 centimeters, height is 21.5 centimeters, shoulder width is 28 centimeters, and knee width is 39 centimeters. Tangible Cultural Heritage No. 92 of Seoul Metropolitan Government. It is a typical wooden Buddha statue of the late Joseon Dynasty with a slightly lower body.",02-583-1475,http://encykorea.aks.ac.kr/Contents/GetImage?id=b77f7cd2-2256-4d86-88bf-bcc8a1616f43&w=260&h=260&fit=w&clip=1
사찰,미타사,Mitasa Temple,127.016718,37.544823,Seongdong-gu,Oksu-dong,"서울특별시 성동구에 있는 남북국시대 통일신라의 승려 대원이 창건한 사찰이다. 대한불교조계종 직할교구 본사인 조계사(曹溪寺)의 말사이다. 888년(진성여왕 2)대원(大願)이 창건하였으며, 1115년(예종 10)에 봉적(奉寂)과 만보(萬寶) 두 비구니가 지금의 금호동 골짜기에서 종남산(終南山)으로 절을 옮겨 극락전을 창건하였다.","This temple was founded by a Buddhist monk from the Unified Silla Kingdom during the period of the two Koreas in Seongdong-gu, Seoul. It is a branch temple of Jogye Temple, the headquarters of the Jogye Order of Korean Buddhism. It was founded in 888 (the 2nd year of King Jinseong's reign), and in 1115 (the 10th year of King Yejong's reign), two bhikkhuni (the 10th year of King Yejong's reign) moved the temple from the current Geumho-dong valley to Jongnamsan Mountain and established the Geuknakjeon Hall.",02-2297-4578,http://encykorea.aks.ac.kr/Contents/GetImage?id=b39f831b-7646-46c7-a47e-b09b52669b2e&w=260&h=260&fit=w&clip=1
사찰,흥천사,Heungcheonsa Temple,127.0092313,37.5982779,Seongbuk-gu,Donam2-dong,"서울특별시 성북구에 있는 조선전기 제1대 태조의 비인 신덕왕후 강씨의 명복을 빌기위해 창건된 사찰이다. 대한불교조계종 직할교구 조계사(曹溪寺)의 말사이다. 1395년(태조 4) 신덕왕후 강씨(神德王后康氏)가 죽자 1396년 능지(陵地)를 정릉(貞陵)에 정하여 조영(造營)하고, 그 원당(願堂)으로 능 동쪽에 170여 칸의 절을 세워 흥천사라 칭하였으며, 조계종의 본산(本山)으로 삼았다. 초창기 이 절은 좌선(坐禪)을 하는 것으로 항규를 삼았다.","This temple was built in Seongbuk-gu, Seoul to pray for the repose of Queen Sindeok Kang, the tombstone of King Taejo of the Joseon Dynasty. It is a branch temple of Jogye Temple, a religious district under the direct control of the Korean Buddhist Jogye Order. In 1395 (the 4th year of King Taejo's reign), after the death of Queen Gang of Sindeok, the Neungji was designated as Jeongneung in 1396 and a 170-kan temple was built east of the tomb to be called Heungcheonsa Temple, and the main mountain of the Jogye Order. In the early days, this temple was used as a left-wing temple.",02-929-6611,http://encykorea.aks.ac.kr/Contents/GetImage?id=11822da3-5e04-4cc5-bcb5-ddfda06e89cd&w=260&h=260&fit=w&clip=1
사찰,적조사,Jeokjosa Temple,127.0074102,37.5983648,Seongbuk-gu,Donam2-dong,서울 성북구 돈암동의 흥천사 주지를 지낸 성혜 스님이 지난 1849년에 세운 사찰이다. 적조사는 창건 당시 흥천사의 산내암자였지만 지난 1958년 경산 스님이 주지로 부임하면서 흥천사와 분리됐다.,"The temple was built in 1849 by monk Seonghye, who served as the chief monk of Heungcheonsa Temple in Donam-dong, Seongbuk-gu, Seoul. Jeokjosa Temple was a mountain hermitage of Heungcheonsa Temple at the time of its foundation, but was separated from Heungcheonsa Temple in 1958 when a monk named Gyeongsan became the chief monk.",02-924-5362,http://news.bbsi.co.kr/news/photo/201503/683678_5621_5446.jpg
사찰,미타사,Mitasa Temple,127.0161295,37.5852177,Seongbuk-gu,Samseon-dong,"서울특별시 성북구에 있는 고려전기 승려 혜거국사가 창건한 사찰이다. 대한불교조계종 직할교구 본사인 조계사(曹溪寺)의 말사이다. 950년(광종 1)혜거(慧居) 국사가 창건하였다. 1047년(문종 1) 오층석탑이 조성되었고, 1314년(충숙왕 1)혜감(慧鑑) 국사만항(萬沆)이 중수하였다.","This temple was founded by State Preceptor Hyegeo of Goryeo Dynasty in Seongbuk-gu, Seoul. It is a branch temple of Jogye Temple, the headquarters of the Jogye Order of Korean Buddhism. It was founded by National Preceptor Hyegeo in 950 (the 1st year of King Gwangjong's reign). The Five-story Stone Pagoda was constructed in 1047 (the 1st year of King Munjong's reign), and was reconstructed by the 1st year of King Chungsuk's reign (the 1st year of King Chungsuk's reign)",02-925-0435,http://encykorea.aks.ac.kr/Contents/GetImage?id=ceaa1c9c-f2ab-40f4-ad08-a4ab4b0a0b62&w=260&h=260&fit=w&clip=1
사찰,보문사,Bomunsa Temple,127.0159375,37.5844222,Seongbuk-gu,Bomun-dong,"서울특별시 성북구에 있는 고려전기 승려 담진이 창건한 사찰이다. 대한불교보문종의 총본산이다. 1115년(예종 10)에 담진(曇眞)이 비구니의 수련장으로 창건하였다. 창건 당시에는 조그만 암자로, 탑골에 있었으므로 탑골 승방이라 하였다. 그 뒤 1692년(숙종 18)에 대웅전을 개축하는 등 수차례 중수를 하였으며, 1945년부터 비구니 은영(恩榮)이 주지로 취임하면서 절을 크게 중창하였다. 원래는 조계종 산하의 소속 사찰이었으나 1972년 독립하여 보문종을 창종하고 보문종의 본산이 되었는데, 현재 그 규모면에서 굴지의 거찰(巨刹)이 되었다.","This temple was founded by Damjin, a Buddhist monk of the Goryeo Dynasty, in Seongbuk-gu, Seoul. It is the headquarters of the Korean Buddhist Order. In 1115 (the 10th year of King Yejong's reign), Damjin was founded as a training center in Bikuni. At the time of its foundation, it was called Tapgol Seungbang because it was located in Tapgol, a small hermitage. The temple was reconstructed several times in 1692 (the 18th year of King Sukjong's reign), including the reconstruction of Daeungjeon Hall, and the temple was reconstructed in 1945 when Eunyeong Bikkhuni took office as the main governor. Originally, the temple belonged to the Jogye Order, but it became the main temple of Bomunjong after its independence in 1972. It is now the leading temple in terms of its size.",02-928-3797,http://encykorea.aks.ac.kr/Contents/GetImage?id=2187b8c4-0cb8-4fa3-9618-4f06159b1f44&w=260&h=260&fit=w&clip=1
사찰,정법사,Jeongbeobsa Temple,126.9910228,37.6017252,Seongbuk-gu,Seongbuk-dong,서울특별시 성북구 성북2동 330-76 에 있는 선학원 소속 사찰이다.,"It is a temple belonging to Seonhakwon located in 330-76 Seongbuk 2-dong, Seongbuk-gu, Seoul.",02-762-0774,
사찰,개운사,Gaeunsa Temple,127.0281116,37.5900323,Seongbuk-gu,Dongseon-dong,"서울특별시 성북구 안암산(安巖山)에 있는 조선전기 승려 무학대사 자초가 창건한 사찰이다. 대한불교조계종 직할교구 조계사의 말사이다. 1396년(태조 5) 무학(無學)이 현재 위치의 근처에 창건하여 영도사(永導寺)라고 하였으며, 1779년(정조 3)정조의 후궁인 홍빈(洪嬪)의 묘 명인원(明仁園)이 절 옆에 들어서자 인파(仁波)가 지금의 자리로 옮기고 개운사라 개명하였다.","This temple was founded by Jacho, a Buddhist monk of the early Joseon Dynasty, in Anamsan Mountain, Seongbuk-gu, Seoul. It is a branch temple of Jogyesa Temple, a religious district under the direct control of the Korean Buddhist Order. In 1396 (the 5th year of King Taejo's reign), Muhak founded it near its current location and called it Yeongdosa Temple. In 1779, when Myeonginwon, the tomb of Hongbin, the concubine of King Jeongjo, entered the temple next to it, the people moved to where it is and renamed Gaeunsa.",02-926-4069,http://encykorea.aks.ac.kr/Contents/GetImage?id=b7212a6c-1eb1-4f2d-8f80-80f159268a4e&w=260&h=260&fit=w&clip=1
사찰,봉국사,Bongguksa Temple,127.0059102,37.6051695,Seongbuk-gu,Jeongneung2-dong,"서울특별시 성북구에 있는 조선전기 승려 무학대사 자초 창건한 사찰이다. 1395년(태조 4)에 무학대사(無學大師)가 조선의 무궁한 발전을 기원하기 위하여 창건하였다. 창건 당시 무학은 약사여래(藥師如來)를 봉안하고 약사사(藥師寺)라고 하였다. 1468년(세조 14)에는 사승(寺僧)들이 중건하였고, 1882년(고종 19)에 임오군란으로 불탄 것을 이듬해 청계(淸溪)와 덕운(德雲)이 중창하였다.","This temple was built by Muhak, a Buddhist monk of the Joseon Dynasty, in Seongbuk-gu, Seoul. In 1395 (the 4th year of King Taejo's reign), Muhak was founded to pray for the eternal development of Joseon. At the time of its foundation, Muhak enshrined Yaksa Yeorae and called it Yaksa Temple. In 1468 (the 14th year of King Sejo's reign), the monks were reconstructed, and in 1882 (the 19th year of King Gojong's reign), the Imo-gun Rebellion was burned down and Cheonggye and Deokun reconstructed the following year.",02-919-0211,http://encykorea.aks.ac.kr/Contents/GetImage?id=72f7f308-c594-4159-9eaf-718f1e9ff537&w=260&h=260&fit=w&clip=1
사찰,경국사,Gyeongguksa Temple,127.0045638,37.6146027,Seongbuk-gu,Jeongneung3-dong,"서울특별시 성북구 삼각산(三角山)에 있는 고려후기 율사 정자가 창건한 사찰이다. 대한불교조계종 직할교구본사 조계사(曹溪寺)의 말사(末寺)이다. 1325년(충숙왕 12) 율사 정자(淨慈)가 창건하여 청암사(靑巖寺)라 하였고, 1330년경 무기(無寄)가 머물면서 천태종(天台宗)의 교풍을 크게 떨쳤으며, 1331년 거사 채홍철(蔡洪哲)이 선방을 증축하여 선승들의 수도를 적극 후원하였다.","This temple was built by a pavilion of Yulsa during the late Goryeo Dynasty in Samgaksan Mountain, Seongbuk-gu, Seoul. This is the word of Jogye Temple, the head office of the Jogye Order of Korean Buddhism. In 1325 (the 12th year of King Chungsuk's reign), the pavilion of Yulsa Temple was founded and called Cheongamsa Temple. In 1330, Mujang stayed and greatly influenced the style of Cheontaejong. In 1331, Chae Hong-cheol, a geosa, extended the capital of Seonbang and actively supported the capital of the capital.",02-914-5447,http://encykorea.aks.ac.kr/Contents/GetImage?id=4fb792eb-65b9-4e4a-b967-aa64e07c52eb&w=260&h=260&fit=w&clip=1
사찰,내원사,Naewonsa Temple,126.9943973,37.6264855,Seongbuk-gu,Jeongneung4-dong,"내원사는 북한산 자락에 자리하고 있는 수많은 사찰 가운데 하나로, 정릉 골짜기를 지나 1km 정도 오르면 멀리 목멱산을 바라다 보이는 곳에 자리하고 있다. 언제 누가 창건했는지는 정확하게 밝혀지지 않고 있다. 역사적으로 내원사의 존재를 밝혀주는 것은 현재로서는 김정호가 제작한 「수선전도(首善全圖)」와 1859년(철종 10) 만들어져 사찰에 전하는『백의대사불도(白衣大士佛圖)』라는 목판이 유일하다.","Naewonsa Temple is one of the numerous temples located at the foot of Bukhansan Mountain, and is located at a place where you can see Mokmyeoksan Mountain from a distance of about a kilometer up the Jeongneung Valley. It is not known exactly when or who founded it. Historically, the only wooden tablets that reveal the existence of Naewonsa Temple are the ""Suseonjeon"" produced by Kim Jeong-ho and the ""Baekui Buddhist Monk"" produced by King Cheoljong in 1859 (the 10th year of King Cheoljong's reign).",02-941-2011,http://tong.visitkorea.or.kr/cms/resource/34/2360934_image2_1.jpg
사찰,수국사,Suguksa Temple,126.905059,37.615944,Eunpyeong-gu,Galhyeon2-dong,서울특별시 은평구 삼각산(三角山)에 있는 조선전기 제7대 세조의 명으로 창건한 사찰이다. 대한불교조계종 직할교구 본사인 조계사(曹溪寺)의 말사이다.,"The temple was founded by the 7th King Sejo of the Joseon Dynasty in Samgaksan Mountain, Eunpyeong-gu, Seoul. It is a branch temple of Jogye Temple, the headquarters of the Jogye Order of Korean Buddhism.",02-356-2001,http://encykorea.aks.ac.kr/Contents/GetImage?id=cd49f0d8-e701-42be-a4b5-2ea1ae541de1&w=260&h=260&fit=w&clip=1
사찰,진관사,jingwansa Temple,126.9466088,37.6381361,Eunpyeong-gu,Galhyeon1-dong,서울특별시 은평구 북한산(北漢山)에 있는 고려전기 제8대 현종이 승려 진관대사를 위해 창건한 사찰이다. 대한불교조계종 제1교구 본사인 조계사(曹溪寺)의 말사이다. 고려 현종이 진관대사를 위하여 진관사를 창건하였다.,"The eighth Hyeonjong of the Goryeo Dynasty, located on Bukhansan Mountain in Eunpyeong-gu, Seoul, was founded for Jingwan, a Buddhist monk. It is a branch temple of Jogye Temple, the headquarters of the first diocese of the Korean Buddhist Jogye Order. Hyeonjong of Goryeo founded Jingwansa Temple for Jingwansa.",02-359-8410,http://encykorea.aks.ac.kr/Contents/GetImage?id=14e30e1e-759d-4f8c-8268-fb99b7ad6663&w=260&h=260&fit=w&clip=1
사찰,삼천사,Samcheonsa Temple,126.9524592,37.6422631,Eunpyeong-gu,Nokbeon-dong,"서울특별시 은평구 북한산(北漢山)에 있는 남북국시대 통일신라의 승려 원효가 창건한 사찰이다. 신라시대 원효(元曉)가 흥국사(興國寺) 등과 함께 창건한 절이라 하나, 그 뒤 중창 및 중수의 역사는 전하지 않고 있다.","This temple was built by Wonhyo, a Buddhist monk from the Unified Silla Kingdom of the two Koreas, located on Bukhansan Mountain in Eunpyeong-gu, Seoul. Although Wonhyo built the temple with Heungguksa Temple during the Silla Dynasty, the history of Jungchang and Jungsu has not been reported since then.",02-353-3004,http://encykorea.aks.ac.kr/Contents/GetImage?id=e1f220a0-ccd8-440f-acac-b414ac5d5907&w=260&h=260&fit=w&clip=1
사찰,용암사,Yongamsa Temple,126.9552281,37.651162,Eunpyeong-gu,Jingwan-dong,서울시 은평구 진관내동 산 51번지 북한산 자락에 자리한 대한불교 조계종 선학원 사찰이다.,"The temple is located at the foot of Bukhansan Mountain at 51 Mount Bukhan in Jingwannae-dong, Eunpyeong-gu, Seoul.",02-387-3216,
사찰,조계사,Jogyesa Temple,126.9826498,37.5743716,Jongno-gu,Jongno1.2.3.4ga-dong,서울특별시 종로구에 있는 일제강점기 에 창건된 사찰이다. 대한불교조계종의 총무원과 종회사무처(宗會事務處)가 본부를 두고 있는 포교전법도량(布敎傳法道場)으로 대한불교 조계종의 직할교구 본사이다.,"It is a temple founded in Japanese colonial era in Jongno-gu, Seoul. This is the headquarters of the Jogye Order of Korean Buddhism, which is headquartered by the General Affairs of the Jogye Order and the Secretariat of the Korean Buddhist Order.",02-768-8600,http://encykorea.aks.ac.kr/Contents/GetImage?id=d804ef70-9ffa-46f5-85f9-8d776da5fced&w=260&h=260&fit=w&clip=1
사찰,금선사,Geumseonsa Temple,126.9533792,37.6205778,Jongno-gu,Pyeongchang-dong,북한산국립공원 남서쪽 산기슭에 위치한 사찰이다.,It is a temple located at the foot of a mountain southwest of Bukhansan National Park.,02-395-9911,https://upload.wikimedia.org/wikipedia/commons/thumb/1/1c/%EA%B8%88%EC%84%A0%EC%82%AC1.jpg/272px-%EA%B8%88%EC%84%A0%EC%82%AC1.jpg
사찰,승가사,Seunggasa Temple,126.9726071,37.6312768,Jongno-gu,Pyeongchang-dong,서울특별시 종로구 북한산(北漢山)에 있는 남북국시대 통일신라의 승려 수태가 창건한 사찰이다. 대한불교조계종 직할교구 본사인 조계사(曹溪寺)의 말사이다. 756년(경덕왕 15)에 수태(秀台)가 창건하여 당나라 고종 때 장안 천복사(薦福寺)에서 대중을 교화하면서 생불(生佛)로 지칭되었던 승가(僧伽)를 사모하는 뜻에서 승가사라 하였다.,"This temple was built by Sutae, a Buddhist monk from the Unified Silla Kingdom, in Bukhansan Mountain, Jongno-gu, Seoul. It is a branch temple of Jogye Temple, the headquarters of the Jogye Order of Korean Buddhism. It was founded in 756 (the 15th year of King Gyeongdeok's reign) by King Sutai and was called Seunggasa in the sense of love for Seungga, which was referred to as ""saengbul"" when it was cultivated by the public at Cheonboksa Temple in Jangan during the reign of King Gojong of the Tang Dynasty.",02-379-2996,http://encykorea.aks.ac.kr/Contents/GetImage?id=43c73c9f-35e0-4fb8-8d84-d6de1ee31387&w=260&h=260&fit=w&clip=1
사찰,문수사,Munsusa Temple,126.9726031,37.6312799,Jongno-gu,Pyeongchang-dong,"서울특별시 종로구 삼각산(三角山)에 있는 고려전기 승려 탄연이 창건한 사찰이다. 대한불교조계종 직할교구 본사인 조계사의 말사이다. 1109년(예종 4) 탄연(坦然)이 창건하였고, 1451년(문종 1) 연창공주(延昌公主)가 중창하였으며, 그 뒤 여러 차례의 중수를 거듭해오다 6·25전쟁 때 소실되었다. 현재의 절은 1957년 신수(信洙)가 중건하였으며, 1985년 혜정(慧淨)이 삼성각을 중수하였다. 당우로는 대웅전·응진전(應眞殿)·산신각·요사채 등이 있다. 이 절은 원래 오백나한(五百羅漢)을 모신 기도처로서 유명하다.","This temple was founded by Tanyeon, a Buddhist monk of Goryeo, in Samgaksan Mountain, Jongno-gu, Seoul. It is a branch temple of Jogye Temple, the head office of the Jogye Order of Korean Buddhism. It was founded by Tanyeon in 1109 (the 4th year of King Yejong's reign), and was reconstructed by Princess Yechang in 1451, and was destroyed during the Korean War after several heavy repairs. The current temple was reconstructed by Shinsu in 1957 and was reconstructed by Hyejeong in 1985. Dangwoo includes Daeungjeon Hall, Eungjinjeon Hall, Sanshingak Pavilion, and Yosachae. This temple was originally famous as a prayer house for 500 Na-han.",02-391-2062,http://encykorea.aks.ac.kr/Contents/GetImage?id=ba23522a-0511-4c9e-8b72-bf4c91421c75&w=260&h=260&fit=w&clip=1
사찰,인왕사,Inwangsa Temple,126.9726071,37.6312768,Jongno-gu,Muak-dong,"서울특별시 종로구 인왕산(仁王山)에 있는 조선전기 호국도량으로 창건된 사찰이다. 조선을 건국한 태조가 한양에 도읍을 정한 후 경복궁을 수호하는 호국도량(護國道場)으로서 인왕사(仁旺寺)를 창건했다고 전한다. 절은 임진왜란과 병자호란을 거치면서 소실되었다. 이후 오랫동안 방치되다가 일제강점기인 1912년 박선묵이 선암정사(禪巖精舍, 현 본원정사)를 세우면서 이 절을 중창하였다. 1914년에 탄옹이 인근에 대원암(大願庵)을 세웠고, 1924년에는 자인이 안일암(安逸庵)을 지었다. 이어 1927년에는 춘담이 극락전을 세우고 1930년에는 묘법이 치성당을 신축하는 등 1930년경에 이르면 10여 개의 암자가 모이며 군락을 형성하게 되었다. 1942년에 분리된 여러 개의 암자를 통합하여 다시 ‘인왕사’라 칭하고 봉은사(奉恩寺)의 말사로 등록하였다.","The temple was built in Inwangsan Mountain, Jongno-gu, Seoul, as the Hogukdo River during the early Joseon Period. It is said that King Taejo, the founder of Joseon Dynasty, established Inwangsa Temple as a site for protecting Gyeongbokgung Palace after establishing a capital in Hanyang. The temple was destroyed during the Japanese Invasion of Korea in 1592 and the Manchu Invasion of Korea. After being neglected for a long time, Park Seon-muk built Seonamjeongsa Temple (currently Bonwonjeongsa) in 1912 and reconstructed this temple. Daewonam was built near Tanong in 1914, and Zain built Anilam in 1924. In 1927, Chundam built the Geungnakjeon Hall in 1927 and the Chiseongdang Shrine was built in 1930. About 10 hermitages gathered to form a colony. In 1942, several hermitages separated from each other were called 'Inwangsa' and were registered as a branch of Bongeunsa Temple.",02-737-4434,
사찰,대각사,Daegaksa Temple,126.9918747,37.5736214,Jongno-gu,Jongno1.2.3.4ga-dong,서울특별시 종로구 봉익동 2에 있는 조계종 소속 사찰이다.,"It is a temple belonging to the Jogye Order located in Bongik-dong 2, Jongno-gu, Seoul.",02-765-0972,
사찰,청룡사,Cheongryongsa Temple,127.0165765,37.5798117,Jongno-gu,Sungin1-dong,"서울특별시 종로구에 있는 고려전기 승려 도선국사의 유언으로 창건되었다고 전하는 사찰이다. 청룡사(靑龍寺)는 서울특별시 종로구 동망산길(현재 숭인동)에 위치한 절로, 고려 태조 때 도선국사의 유언에 의해 창건되었다. 이 사찰은 한양의 외청룡 산등성이에 지어져서 ‘청룡사’라 불렸지만, 그 건립 연혁에 관해서는 정확히 전해지는 것이 없다.","It is said to have been founded by the will of State Preceptor Doseon of Goryeo Dynasty in Jongno-gu, Seoul. Cheongnyongsa Temple is a temple located in Dongmangsan-gil (currently Sungin-dong) in Jongno-gu, Seoul, and was founded by Doseon State Preceptor Doseon during the reign of King Taejo of the Goryeo Dynasty. This temple was built on the ridge of Oecheongryong Mountain in Hanyang and was called 'Cheongryongsa', but nothing is known about its history.",02-763-4031,http://encykorea.aks.ac.kr/Contents/GetImage?id=04f0da4e-3d3c-4337-8983-1876f7d98401&w=260&h=260&fit=w&clip=1
사찰,묘각사,Myogaksa Temple,127.0187431,37.5754233,Jongno-gu,Sungin1-dong,"서울특별시 종로구 낙산(駱山)에 있는 일제강점기 이홍선이 창건한 사찰이다. 대한불교관음종(大韓佛敎觀音宗)의 총본산이다. 대한불교관음종은 처음 대한불교불입종(大韓佛敎佛入宗)이었는데 1988년에 명칭 변경하고, 1989년 1월 재단법인 대한불교관음종으로 설립되었다. 1942년 5월 이홍선(李泓宣)이 창건하였고, 그 뒤 두 차례의 증축을 하였다.","This temple was founded by Lee Hong-sun of Japanese colonial era in Naksan, Jongno-gu, Seoul. It is the headquarters of the Korean Buddhism Gwaneumjong. The Daehan Buddhist Gwan Eumjong was first known as the Daehan Buddhist Bell, which was renamed in 1988 and was established as the Daehan Buddhist Gwan Eumjong, a foundation, in January 1989. It was founded by Yi Hong-sun in May 1942, and has since been rebuilt twice.",02-763-3345,http://encykorea.aks.ac.kr/Contents/GetImage?id=3315341a-dd0b-4391-bdaa-488c64b64081&w=260&h=260&fit=w&clip=1
사찰,감로암,Gamnoam Hermitage,127.008611,37.5755469,Jongno-gu,Jongno5.6ga-dong,서울특별시 종로구 충신동 15번지에 있는 조계종 소속 사찰이다.,"It is a temple belonging to the Jogye Order located at 15 Chungshin-dong, Jongno-gu, Seoul.",02-762-5861,
사찰,일선사,Ilseonsa Temple,126.9770991,37.6280071,Jongno-gu,Pyeongchang-dong,"서울특별시 종로구 북한산(北漢山)에 있는 남북국시대 통일신라의 승려 도선국사가 창건한 사찰이다. 북한산 보현봉 아래에 위치한 일선사(一禪寺)는 보현사(普賢寺), 관음사(觀音寺), 일선사(一詵寺)라고도 불렀다. 재단법인 선학원 소속 사찰이다. 신라말인 9세기에 도선국사(道詵國師)가 보현사라는 이름으로 창건했는데, 현재의 위치보다 서쪽으로 300m쯤 떨어진 자리였다. 지금도 서쪽으로 30m 떨어진 곳에 '보현굴'이라고 불리는 굴이 있다. 고려시대에는 대감국사(大鑑國師) 탄연(坦然, 1070~1159)이 중창했다고 한다.","This temple was built by State Preceptor Doseon of the Unified Silla Dynasty in Bukhansan Mountain, Jongno-gu, Seoul. Located below Bukhansan Mountain's Bohyeonbong Peak, Ilseonsa Temple was also called Bohyeonsa Temple, Gwaneumsa Temple, and Ilseonsa Temple. It is a temple belonging to Seonhakwon, a foundation. In the 9th century, at the end of the Silla Dynasty, Doseon State Preceptor was founded under the name of Bohyeonsa, about 300 meters west of its current location. Even now, there is a cave called ""Bohyeon Cave"" 30 meters west of Seoul. During the Goryeo Dynasty, the Great Gamguksa Temple was said to have been composed by Tanyeon (1070-1159).",02-379-8697,
사찰,소림사,Sorim Temple,126.9589704,37.6012246,Jongno-gu,Buam-dong,"서울특별시 종로구에 있는 조선전기 승려 혜철이 왕명으로 창건한 사찰이다. 대한불교조계종 직할교구 본사인 조계사(曹溪寺)의 말사이다. 법당 뒤의 암벽에는 깊은 굴이 있는데, 이성계(李成桂)가 등극하기 전에 이 굴 속에서 수도하고 뜻을 이루었으므로, 1396년(태조 5)에 혜철(惠哲)에게 명하여 절을 짓게 하고 달마(達磨)가 9년 동안 면벽좌선(面壁坐禪)한 숭산(崇山) 소림사의 이름을 따서 소림굴(少林窟)이라고 하였다. 그 뒤 기도 및 수행처로서 전승되어오다가 1817년(순조 17)에 관해(觀海)가 중건하고 소림사라 하였으며, 1913년에 두삼(斗三)이 큰방을 지어 오늘에 이르고 있다.","The temple was founded by King Hyechul, a Buddhist monk of the Joseon Dynasty, in Jongno-gu, Seoul. It is a branch temple of Jogye Temple, the headquarters of the Jogye Order of Korean Buddhism. There is a deep cave in the rock behind the shrine, which was built in 1396 (the 5th year of King Taejo's reign) by ordering Hyechul to build a temple and Dalma named it Sorimgul after Soongsan Temple, which had been the front wall for nine years. Since then, it has been passed down as a prayer and performance center, and in 1817 (the 17th year of King Sunjo's reign), it was called ""Sorimsa Temple,"" and in 1913, Dusam built a large room and continues to this day.",02-394-2145,http://encykorea.aks.ac.kr/Contents/GetImage?id=c5df786c-079a-4cd1-91bc-6998e9d09e83&w=260&h=260&fit=w&clip=1
사찰,안양암,Anyangam Hermitage,127.0133825,37.5753955,Jongno-gu,Changsin1-dong,"서울특별시 종로구에 있는 일제강점기 이태준이 창건한 암자이다. 대한불교원효종(大韓佛敎元曉宗)의 총본산이다. 1926년 이태준(李泰俊)이 칠성각을 짓고 창건한 뒤 차례로 당우들을 지어 사찰의 면모를 갖추었다. 건물로는 대웅전·관음전·명부전·금륜전(金輪殿)과 손바닥 크기의 1,500불상이 모셔진 천오백불전(千五百佛殿)·영각(影閣)·산신각·칠성각 기타 요사채가 있다. 또한, 절의 경내에는 대한불교원효종 총무원이 있다.","It is a hermitage founded by Lee Tae-joon of Japanese colonial era in Jongno-gu, Seoul. It is the headquarters of Hyojong, a Buddhist monk of Korea. After Yi Tae-jun built Chilseonggak in 1926, he built a shrine to honor the temple. The buildings include Daeungjeon Hall, Gwaneumjeon Hall, Myeongbujeon Hall, and Geumryunjeon Hall, and 1,500 palm-sized statues of Buddha. In addition, there is a general official of the Korean Buddhist Church Hyojong in the temple's precincts.",02-744-6923,http://encykorea.aks.ac.kr/Contents/GetImage?id=99c2f16a-391a-4414-851f-c85f5bc2c18b&w=260&h=260&fit=w&clip=1
전통시장,조양시장,Joyang Market,127.06705181,37.539022119,Gwangjin-gu,Jayang4-dong,"자양동에 위치한 상설시장. 건대입구역 6번 출구에서 조금만 걸으면 시장을 발견할 수 있다. 과거 재래시장의 모습은 많이 사라지고, 상가 형태의 시장으로 운영되고 있다. 건대에는 중국인 교환학생이 많아서 조양시장 내에도 중국 상권이 크게 형성되어있다. 환전소를 비롯하여 중국인을 위한 가게가 많은 편인데, 시장 골목을 걷다 보면 붉은 간판의 중국 음식점을 쉽게 발견할 수 있다. 이곳에서는 일반적인 중국음식뿐만 아니라 양꼬치구이도 맛볼 수 있는 데 아주 별미이다.","A permanent market located in Jayang-dong. A short walk from Exit 6 of Konkuk University Station will find the market. Many traditional markets have disappeared in the past, and they are operated as markets in the form of shopping malls. In Konkuk University, there are many Chinese exchange students, so there is a large Chinese business district in Choyang Market. There are many shops for Chinese, including currency exchange, and walking along the market alley makes it easy to find Chinese restaurants with red signboards. Here, you can taste lamb skewers as well as common Chinese food.",02-463-5611,http://www.traveli.co.kr/repository/look/contents/look_p52_m.jpg
전통시장,강남시장,Gangnam Market,127.02082728,37.518799217,Gangnam-gu,Sinsa-dong,"현대식으로 새롭게 조성된 강남시장은 1974년에 개장된 재래시장으로 개장 이래 많은 사람의 이용과 사랑을 받고 있다. 오랜 역사를 간직하고 있는 전통 시장으로 생활 잡화를 비롯하여 먹거리, 약재 등 여러 가지 물품이 구비되어 있다. 상가건물형 시장이자 중형시장인 이곳은 오전 7시에 개점하여 오후 10시에 폐점한다. 정확한 정기휴일에 대해서는 알기 어렵다.","The modern Gangnam Market is a traditional market that opened in 1974 and has been loved by many people since its opening. It is a traditional market with a long history and is equipped with various items such as miscellaneous goods, food, and medicinal herbs. It is a commercial building-type market and a medium-sized market. It opens at 7 a.m. and closes at 10 p.m. It is difficult to know about the exact regular holidays.",02-542-0874,
전통시장,영동전통시장,Yeongdong Traditional Market,127.04730506,37.517404035,Gangnam-gu,Samseong2-dong,"7호선 논현역과 9호선 신논현역 사이에 형성된 전통시장이다. 강남대로 이면에 위치하고 있으며, 대중교통 접근성이 매우 우수하다. 정육점, 농산물, 수산물, 가공식품, 의류 등 다양한 식재료와 지방특산물 등을 취급하고 있다. 2, 30대 젊은 층 거주민이 많아서 이용 연령층도 비교적 낮고, 분위기도 활발한 편이다. 근처에 논현가구거리가 있어, 가구거리 구경 후 시장에 들러 후한 인심을 느끼고 배를 채우는 것도 좋을 듯 하다. 다수의 상점에서 온누리 상품권으로 물품 구매가 가능하다. 9시부터 21시까지 운영한다.","It is a traditional market formed between Nonhyeon Station on Line 7 and Sinnonhyeon Station on Line 9. It is located behind Gangnam-daero and has excellent accessibility to public transportation. It deals with various food ingredients and local specialties such as butcher shops, agricultural products, marine products, processed foods and clothing. The number of young people in their 20s and 30s is relatively low and the atmosphere is active. There is Nonhyeon Furniture Street nearby, so it would be good to stop by the market after looking around the furniture street to feel generous and fill your stomach. Goods can be purchased with Onnuri gift certificates at many stores. It is open from 9 to 21.",02-5129-1110,http://www.traveli.co.kr/repository/look/contents/look_p6_m.jpg
전통시장,자양골목시장,Jayang GolMok Market,127.08151563,37.533859299,Gwangjin-gu,Jayang1-dong,광진구 자양로13길 59에 위치한 자양골목시장. 156개의 점포가 위치한 이곳은 중형시장이다. 1972년 형성된 이 시장은 광진구에서 오랜 역사를 자랑하는 시장이다. 골목 상권에 시장이 형성돼 처음 가는 사람들은 시장의 규모에 실망하지만 골목 안으로 들어가면 들어갈수록 다양한 음식과 상품들이 즐비해 있는 곳이다. 오전 9시에 개점하여 오후 10시에 폐점하는데 정확한 휴일은 알기 어렵다.,"Jayang Alley Market, located on 59 Jayang-ro 13-gil, Gwangjin-gu. With 156 stores, it is a medium-sized market. Formed in 1972, this market boasts a long history in Gwangjin-gu. People who are going for the first time due to the formation of a market in the alley market are disappointed by the size of the market, but the more they enter the alley, the more food and products there are. It opens at 9 a.m. and closes at 10 p.m., but it's hard to know the exact holiday.",02-458-1624,http://www.traveli.co.kr/repository/look/contents/look_p45_m.jpg
전통시장,솔샘시장,Solsam Market,127.0187214,37.61980477,Gangbuk-gu,Samgaksan-dong,솔샘 시장은 40년 전통의 규모는 작지만 다양한 물건을 저렴하게 구입할 수 있어 주부들에게 인기가 많은 전통 시장입니다. 시장 현황은 골목형 상가건물형 시장으로 대략 31개 점포수가 있습니다. 편의시설로는 주차장 2곳과 3개의 화장실을 갖추고 있습니다.,"Solsaem Market is a traditional market that is popular with housewives because it is small in size but offers a variety of products at low prices. The market status is an alley-type commercial building market with approximately 31 stores. For convenience facilities, we have 2 parking lots and 3 restrooms.",,
전통시장,우이시장,Ui Market,127.01994265,37.645933158,Gangbuk-gu,Suyu2-dong,"1962년에 개설되었다. 강북구 일대에서 가장 오래된 역사를 지닌 시장인 동시에 가장 작은 규모의 시장이기도 하다. 10개의 점포로 구성된 초소형 시장이며, 생활용품 판매점, 음식점, 떡집, 이발소가 자리하고 있다. 수유역 4번 출구에 위치하고 있어 퇴근길의 직장인들이 자주 이용하며, 곰보냉면과 닭강정 등 맛집 들이 위치한 알짜배기 시장이라 할 수 있겠다. 오전 9시에 영업을 시작하여 오후 8시에 영업을 마친다.","It was opened in 1962. It is the oldest and smallest market in the Gangbuk-gu area. It is a very small market consisting of 10 stores, and houses a household goods store, a restaurant, a rice cake shop, and a barber shop. It is located at Exit 4 of Suyu Station, so it is frequently used by office workers on their way home from work, and it is a good market where famous restaurants such as Gombo naengmyeon and Dakgangjeong are located. It opens at 9 a.m. and closes at 8 p.m.",02-993-0240,http://www.traveli.co.kr/repository/look/contents/look_p23_m.jpg
전통시장,신도봉시장,Shindobong Market,127.041009,37.670045199,Dobong-gu,Dobong1-dong,"지하철 1호선 방학역에서 300m 지점에 자리 잡고 있기 때문에 교통이 편리한 편이다. 1974년도에 건립되었는데, 과거에 있던 도봉 시장의 인지도를 빌리면서도 새로움을 강조하기 위하여 신도봉시장이라고 이름 지었다고 한다. 20개 정도의 점포가 남아있어 소형시장에 속하며, 농산물 공판장과 수산물 센터, 그릇 도매상 등 크게 3개 업체를 중심으로 운영되고 있다. 오전 8시부터 오후 10시까지 운영하여 시간에 구애받지 않고 이용할 수 있다는 것이 장점이다.","Traffic is convenient because it is located 300m away from Banghak Station on Subway Line 1. It was built in 1974, and it was named Sindobong Market to emphasize the newness of Dobong Market while borrowing the popularity of Dobong Market. With about 20 stores remaining, it belongs to the small market, and it is mainly operated by three major companies, including agricultural product markets, marine product centers, and container wholesalers. Its advantage is that it operates from 8 a.m. to 10 p.m. and can be used regardless of time.",,http://www.traveli.co.kr/repository/look/contents/look_p70_m.jpg
전통시장,돈암제일시장,Dongsomun Sky Market,127.00704274,37.591089692,Seongbuk-gu,Samseon-dong,서울시 성북구 동소문동 일대에 있는 돈암전통시장은 성신여대 상권의 이용고객이 많이 찾는 곳이다. 2005년 처음 문을 열었고 성신여대를 중심으로 대학문화가 자리 잡아 여성문화의 중심이 되는 여성중심형 시장으로 활성화되어있다. 오전 9시에 개점하여 오후 10시에 폐점하는데 정확한 정기휴일은 알기 어렵다. 주차장과 화장실이 마련되어 있어 보다 편리한 쇼핑이 가능하다. ,"Donam Traditional Market, located in Dongsomun-dong, Seongbuk-gu, Seoul, is a popular destination for customers in Sungshin Women's University. It was first opened in 2005 and has been active as a women-centered market where university culture is centered around Sungshin Women's University. It opens at 9 a.m. and closes at 10 p.m., but it's hard to know the exact regular holidays. Parking lots and restrooms are available for convenient shopping.",02-922-4414,http://www.traveli.co.kr/repository/look/contents/look_p110_m.jpg
전통시장,신평화패션타운,Sinpyeonghwa Fashion Town,127.01091197,37.569526813,Jung-gu,Sindang-dong,"동대문시장에서 오랜 전통과 규모를 자랑하는 패션 도매 전문시장이다. 무려 1,000개가 넘는 점포에서 패션 관련 물품을 취급하는데 주로 의류, 속옷, 양말, 스포츠용품, 우산 등을 판매한다. 국내 최대 규모의 의류시장인 만큼 동남아, 남미, 유럽 등 외국 바이어와 관광객이 많이 찾는다고 한다. 온누리 상품권 이용이 가능하다. 정기휴일은 매주 토요일이며, 21시에 영업을 시작하여 1층은 24시간 운영, 2, 3층은 정오까지 운영, 지층과 4층은 17시까지 운영한다.","Dongdaemun Market is a fashion wholesale market with a long tradition and scale. More than 1,000 stores handle fashion-related items, mainly clothing, underwear, socks, sporting goods, and umbrellas. As it is the largest clothing market in Korea, foreign buyers and tourists from Southeast Asia, South America and Europe are said to visit. Onnuri gift certificates are available. Regular holidays are every Saturday, and the first floor is open 24 hours a day, the second and third floors are open until noon, and the fourth floors are open until 17 p.m.",02-2253-0714,http://www.traveli.co.kr/repository/look/contents/look_p187_m.jpg
전통시장,남대문시장,Seoul Namdaemun Market,126.9773642,37.559192523,Jung-gu,Hoehyeon-dong,"남대문시장은 서울특별시 중구, 숭례문 부근 동쪽에 위치한 종합재래시장이다. 서울 지하철 4호선 회현역과 가깝다. 남대문 부근 시장의 기록은 조선 초기인 태종 때나 세종 때에도 확인된다. 임진왜란 이후로 선혜청이 세워져 시장이 형성되었다.","Namdaemun Market is a traditional market located in the east near Sungnyemun Gate in Jung-gu, Seoul. It is close to Hoehyeon Station on Seoul Subway Line 4. Records of the market near Namdaemun are also confirmed during the reign of King Taejong and King Sejong during the early Joseon Dynasty. After the Japanese Invasion of Korea in 1592, Seonhyecheong was established and a market was formed.",02-753-2805,
전통시장,창동신창시장,Changdong Sinchang Market,127.03779701,37.639275921,Dobong-gu,Chang2-dong,"신창시장은 2008년 상인회가 새롭게 출범한 후 하루 약 7000여 명의 손님이 찾아오는 인기 시장으로 바뀌었다. 상인들은 시장 발전을 위해 노력을 아끼지 않고 있다. 아케이드 보수, 버스정류장 개설, 상인 정보화 교육 등 소비자를 위한 적극적인 행보를 이어가며 시장 역시 변화의 물결을 맞고 있다. 2500만 원의 예산을 집행해 시행한 무료배송서비스는 구입점포나 배송센터에 요청하면 배송기사가 도봉구에 한정하여 차량이나 오토바이로 배송을 해주는 서비스이다. 집에서도 배송서비스를 이용할 수 있다. 배송센터(02-990-0040) 혹은 점포에 전화로 상품을 주문하면 된다.","Since the new launch of the merchant association in 2008, the Sinchang market has been transformed into a popular market with about 7,000 customers a day. Merchants are sparing their efforts for market development. The market is also facing a wave of change as it continues to take active steps for consumers, including repair of arcades, opening bus stops, and information service education for merchants. The free delivery service, which was implemented with a budget of 25 million won, is a service that allows delivery drivers to ship only to Dobong-gu when requested by the purchasing store or delivery center. Delivery services are also available at home. You can order the goods at the shipping center (02-990-0040) or by telephone from the store.",02-990-0040,http://www.traveli.co.kr/repository/look/contents/look_p67_m.jpg
전통시장,우림골목시장,Urim Golmok Market,127.09824373,37.596970332,Jungnang-gu,Mangubon-dong,"조선시대에 지금의 마장동 우시장에 가기 위해 먼 길을 걸어온 소에게 여물을 먹이고 쉬게하던 곳이라 이름 지어진 우림시장은 1970년대 지역 상인과 인근 구리와 양평 등의 경기도 상인들이 집결, 상권이 형성되기 시작하면서 지금에까지 이어지고 있다.   우림시장은 2001년 눈비가림시설인 아케이드를 설치하고 고객들의 통행에 불편이 없도록 점포별 천막과 파라솔, 노점에 쌓인 상품을 정비해 쾌적한 쇼핑환경을 만들었다. 2002년부터 배달서비스 체계 구축 및 인터넷 교육을 통해 지역민을 대상으로 직접 우림시장을 찾지 않더라도 인터넷과 전화로 시장 내 물품을 구매하는 고객의 집까지 물품을 배달해주는 택배 서비스를 실시했다. 택배 서비스는 당일 수시배송을 원칙으로 한다. 2004년부터 현재까지 이벤트 및 홍보, 공통쿠폰 발행, 특가판매지원 등의 경영혁신지원사업에 참여하고 있으며 이를 통해 고객만족을 극대화하여 지역민의 꾸준한 사랑을 받고 있다.","The Urim Market, which was named as the place where cows who walked a long way to go to the current Majang-dong cattle market during the Joseon Dynasty were fed and rested, has continued to this day as local merchants and merchants from Gyeonggi Province such as nearby copper and Yangpyeong began to gather in the 1970s. In 2001, the Woorim Market set up an arcade, a snowy forest facility, and refurbished tents, parasols and products piled up in street stalls to prevent inconvenience to customers. Since 2002, the government has established a delivery service system and conducted a delivery service for local residents to deliver goods to customers who purchase goods on the Internet and by telephone, even if they do not visit the rain forest market directly. Delivery service shall be delivered from time to time on the same day in principle. From 2004 to the present, the company has participated in management innovation support projects such as events, public relations, issuance of common coupons, and support for special sales. Through this, it has been continuously loved by local residents by maximizing customer satisfaction.",02-436-3598,http://www.traveli.co.kr/repository/look/contents/look_p196_m.jpg
전통시장,성대시장,Seongdae Market,126.93186099,37.500285578,Dongjak-gu,Sangdo3-dong,"동작구의 재래시장 중 규모가 꽤 큰 편이다. 7호선 신대방삼거리역과 장승배기역 사이에 위치해 교통이 편리하다. 채소, 과일, 수산물, 축산물과 의류 등 생필품을 판매하며, 인근에 주택 밀집지역이 있어 지역민들이 많이 이용하고 있다. 100여개의 점포가 활발하게 운영되고 있으며, 영업시간은 오전 8시부터 자정까지로 긴 편이다. 시장 내 한방 왕갈비, 칼국수, 물닭갈비 등이 맛집으로 유명하다.","Among the traditional markets in Dongjak-gu, it is quite large. It is located between Sindaebang Samgeori Station and Jangseungbaegi Station on Line 7, making transportation convenient. It sells daily necessities such as vegetables, fruits, fisheries products, livestock products and clothing, and has a residential area nearby, which is widely used by locals. More than 100 stores are actively operating, and their business hours are relatively long from 8 a.m. to midnight. Hanbang Galbi, Kalguksu, and Muldakgalbi in the market are famous for their good restaurants.",02-822-4488,
전통시장,방이시장,Bangi Market,127.11341048,37.511765631,Songpa-gu,Bangi2-dong,"1980년대에 형성된 방이시장은 골목형 종합시장이다. 송파구 방이동에 위치하고 있으며 의류, 채소, 수산물, 과일, 잡화 등 240여 개의 점포가 다양한 품목을 판매하는 대형 시장이다. 시설 면에서는 현대화의 모습을 보여주고 있으나 정서와 분위기는 전통의 정취를 그대로 간직하고 있어 외국인들이 송파에 오면 꼭 찾아보는 명소로 자리 잡기도 했다. 방이시장은 오전 5시에 개점하여 오후 10시에 폐점한다.","Bangi Market, formed in the 1980s, is an alley-type general market. Located in Bangi-dong, Songpa-gu, it is a large market where 240 stores, including clothing, vegetables, fisheries products, fruits and miscellaneous goods, sell various items. In terms of facilities, it shows the modernity, but the sentiment and atmosphere are preserved intact, making it a must-see attraction for foreigners when they come to Songpa. The Bangi Market opens at 5 a.m. and closes at 10 p.m.",,http://www.traveli.co.kr/repository/look/contents/look_p116_m.jpg
전통시장,새마을시장,Saemaeul Market,127.08383193,37.508860261,Songpa-gu,Jamsilbon-dong,"새마을 시장은 여러 품목을 판매하여 시장의 기능을 하면서도, 신천역 먹자골목이라 불릴 정도로 맛집의 천국이기도 하다. 저렴한 고깃집이 많고 주점과 음식점이 상가를 따라 늘어서 있다. 오전 9시에 개점하여 오후 8시에 폐점하는데 정확한 정기휴일에 대해서는 알기 어렵다. 약 110여 개의 점포들로 구성되어 있는 중형시장인 이곳은 1980년부터 그 역사를 시작해왔다.","Saemaeul Market serves as a market by selling various items, but it is also called Sincheon Station Food Alley. There are many cheap meat restaurants and bars and restaurants are lined up along the mall. Opening at 9 a.m. and closing at 8 p.m., it is difficult to know the exact regular holidays. The mid-sized market, which consists of about 110 stores, has been in history since 1980.",02-2203-4949,http://www.traveli.co.kr/repository/look/contents/look_p117_m.jpg
전통시장,동문시장,Dongmun Market,127.01094382,37.570644045,Jongno-gu,Changsin1-dong,"서울 종로 창신동에 위치한 동문시장은 1969년 설립된 이후 신발을 전문으로 취급하는 도매시장이다. 300여 개의 점포를 보유하고 있는 중형시장으로 상인회가 조직되지 않은 상태로 운영되고 있다. 오전 2시에 개점하여 오후 2시에 폐점한다. 주차도 가능하며, 화장실도 있어서 보다 쾌적하게 쇼핑할 수 있다. 총 점포 수는 약 320여 개로 시장의 규모는 중형시장에 속한다.","Dongmun Market, located in Changshin-dong, Jongno, Seoul, is a wholesale market that specializes in shoes since its establishment in 1969. It is a medium-sized market with more than 300 stores and operates without a merchant association organized. It opens at 2 a.m. and closes at 2 p.m. Parking is available, and there is a bathroom, so you can shop more comfortably. The total number of stores is about 320 and the size of the market belongs to the mid-sized market.",02-743-4603,http://www.traveli.co.kr/repository/look/contents/look_p158_m.jpg
전통시장,봉일시장,Bongil Market,126.93839113,37.486118126,Gwanak-gu,Euncheon-dong,"서울시 관악구 은천동 소재의 재래시장으로 지하철 2호선 봉천역과 신림역 사이에 있다. 상가건물형 시장인 이곳은 오전 8시에 개점하여 오후 10시에 폐점하는데 정확한 정기휴일에 대해서는 알기 어렵다. 1971년에 처음 개설되어 지금까지 운영되고 있으며, 1971년 12월 22일에 등록시장으로 등록되었다. 약 30여 개의 점포들로 구성된 소형시장은 저렴하고 질 좋은 물건들로 가득하다.","It is a traditional market located in Euncheon-dong, Gwanak-gu, Seoul, and is located between Bongcheon Station and Sillim Station on Subway Line 2. The market opens at 8 a.m. and closes at 10 p.m., but it is difficult to know the exact regular holidays. It was first opened in 1971 and has been operated so far, and was registered as a registered market on December 22, 1971. The small market, consisting of about 30 stores, is full of cheap and high-quality goods.",02-874-1500,
전통시장,사러가시장,Sareoga Market,126.9108555,37.506117317,Yeongdeungpo-gu,Singil3-dong,"원래는 1965년에 개장한 재래시장이었으나, 수차례의 리모델링을 통해 쇼핑센터와 같은 상가건물형 시장의 형태로 바뀌었다. 매장을 재단장하면서 농수산물을 취급하는 슈퍼마켓을 만들고, 의류, 잡화 판매를 활성화시켰는데, 덕분에 고객 연령층이 많아지고 매출도 늘었다고 한다. 현재 77개의 점포를 보유하고 있으며, 다양한 음식점과 유기농 식품, 농수산물도 판매하여 많은 사람들이 찾고 있다. 오전 9시부터 오후 9시까지 운영하며 정기휴일은 매달 첫째, 셋째 주 일요일이다.","Originally, it was a traditional market opened in 1965, but it was remodeled several times and changed into a commercial building-type market such as a shopping center. While refurbishing the store, it created supermarkets that handle agricultural and marine products, and activated sales of clothing and miscellaneous goods, which are said to have increased customer age groups and increased sales. It currently has 77 stores, and it also sells a variety of restaurants, organic food and agricultural and fisheries products, which many people are looking for. It runs from 9 a.m. to 9 p.m. and regular holidays are the first and third Sundays of every month.",02-834-8900,http://www.traveli.co.kr/repository/look/contents/look_p138_m.jpg
전통시장,봉천중앙시장,Bongcheon Jungang Market,126.95434428,37.483782746,Gwanak-gu,Jungang-dong,"봉천중앙시장은 서울시 관악구 봉천(중앙)동에 1969년에 문을 연 상가건물형 시장이다. 약 24개의 점포로 이루어진 소형시장으로 인근에는 지하철 2호선 서울대입구역(관악구청)이 있으며, 오랜 세월 인근 주거지역과 더불어 발전하고 있다. 오전 8시에 개점하여 오후 10시에 폐점한다. 정확한 정기휴일에 대해서는 알기 어렵다. 화장실이 마련되어 있어 보다 편리하게 쇼핑이 가능하다.","Bongcheon Central Market was opened in 1969 in Bongcheon-dong, Gwanak-gu, Seoul. It is a small market with about 24 stores and has been developing with nearby residential areas for a long time, with Seoul National University Station (Gwanak-gu Office) on Subway Line No. 2. It opens at 8 a.m. and closes at 10 p.m. It is difficult to know about the exact regular holidays. There is a restroom, so shopping is more convenient.",02-876-5574,http://www.traveli.co.kr/repository/look/contents/look_p34_m.jpg
전통시장,영일시장,Yeongil Market,126.90066355,37.515966171,Yeongdeungpo-gu,Mullae-dong,"영일시장은 농산물에 특화된 시장으로, 1970년대부터 복개된 하천에서 자연스럽게 사람들이 모여들어 규모가 점차 커져 한때는 가락동시장 다음으로 큰 규모를 자랑하는 시장이었다. 2007년도에 대규모 노점상 철거로 규모가 줄어들긴 했지만 여전히 인근의 병원과 학교의 급식을 담당하는 곳이나 음식점, 동네슈퍼, 인근 전통시장의 상인들이 도매를 하는 곳이다. 보통 새벽 12시부터 4시 사이가 제일 활발한 시간이다. 소매를 팔기도 하지만 거래량은 많지 않은 편이다. 1호선 영등포역과 2호선 문래역 사이에 위치해 있으며 다양한 버스노선이 있어 전국 단위 고객 방문이 많은 도매시장이다. 인근에 별도의 주차시설이 존재하고 자체 주차시설을 갖추지 못한 점과 노후화된 시설을 단점으로 꼽을 수 있지만 접근성과 가시성이 뛰어나다는 장점이 있다. 주변에 대형할인점 및 도매시장이 밀집해 있으며, 준 공업지역에서 주거지역으로 탈바꿈해가고 있는 대표적인 지역이다. 이로 인해 새로운 인구 유입과 현대적 시설들이 늘어나고 유동인구가 지속적으로 증가하고 있다.","Yeongil Market was a market specialized in agricultural products, and it was once the second largest market after Garak-dong Market as people naturally gathered in the covered rivers from the 1970s and grew in size. Although the scale was reduced in 2007 due to the demolition of large-scale street vendors, it is still a place in charge of catering to nearby hospitals and schools, or a place where merchants in restaurants, neighborhood supermarkets and nearby traditional markets are selling out. Usually between 12 a.m. and 4 a.m. is the most active time. They sell retails, but they don't usually trade much. Located between Yeongdeungpo Station on Line 1 and Munrae Station on Line 2, it is a wholesale market with a large number of nationwide customer visits due to its various bus routes. Although there are separate parking facilities nearby, and there are no parking facilities of their own, and aging facilities can be cited as disadvantages, they have the advantage of excellent accessibility and visibility. Large discount stores and wholesale markets are concentrated around the area, and it is a representative area that is transforming from semi-industrial to residential areas. As a result, new population inflows, modern facilities, and the floating population continue to grow.",02-2633-9047,http://www.traveli.co.kr/repository/look/contents/look_p131_m.jpg
전통시장,망원동월드컵시장,Mangwondong WorldCup Market,126.90579174,37.557643433,Mapo-gu,Mangwon2-dong,"1970년대 망원동 서민주택가에 개설되어 오랫동안 지역민의 사랑을 받아온 재래시장이다. 2006년에 아케이드 형으로 환경을 개선하고, 망원동월드컵시장으로 재탄생하였다. 50여 개의 점포에서 농수산물, 축산물, 분식, 생활잡화 등 다양한 품목을 갖추고 있으며, 현재까지도 망원동 주민들이 활발하게 찾고 있다. 지하철 6호선 망원역, 버스노선과 가까워 교통이 편리하고, 근처에 상암 월드컵 경기장과 공원, 한강이 위치해 접근성도 좋은 편이다. 대부분의 점포에서 온누리 상품권을 사용할 수 있으며, 오전 10시에 개점하여 22시까지 운영한다.","It was opened in the 1970s in Seoju-dong, Mangwon-dong, and has long been loved by local residents. In 2006, it improved the environment with arcade type and was reborn as Mangwon-dong World Cup Market. More than 50 stores are equipped with various items such as agricultural and fishery products, livestock products, snacks, and miscellaneous goods, and residents of Mangwon-dong are still actively seeking them. Because it is close to Mangwon Station and Bus Line No. 6, transportation is convenient, and Sangam World Cup Stadium, Park, and Han River are located nearby, making it accessible. Onnuri gift certificates are available at most stores, and they open at 10 a.m. and operate until 22 p.m.",02-322-6656,http://www.traveli.co.kr/repository/look/contents/look_p94_m.jpg
전통시장,마포농수산물시장,Mapo agro-fishery Product Market,126.89854626,37.565926595,Mapo-gu,Seongsan2-dong,"마포농수산물시장은 마포구가 전액 출자한 공기업인 '마포구시설관리공단'이 시장의 시설물과 입주자를 관리하고 각 매장은 임대 운영되고 있다. 각종 수산물과 과일, 채소를 저렴하게 판매하는 마포농수산물시장은 성산동 서울월드컵경기장 맞은편에 위치하고 있고 근처 공원산책길에 잠시 들러 회를 곧바로 떠먹는 관광객들이 많이 찾는다.    마포구를 대표하는 종합도시형매장인 마포농수산물시장은 채소와 과일을 파는 곳이 72곳, 수산물 파는 상점이 50곳 있다. 회센터에서는 다른 회에 비해 다소 가격이 싼 광어와 우럭이 가장 인기 있다. 광어나 우럭은 1마리에 1만5000~3만원 가량한다. 회뿐 아니라 낙지나 멍게, 해삼 등 각종 해산물이 가득해 가족 나들이 길에 다양한 수산물을 맛볼 수 있어 좋다.  횟감을 파는 상점은 오후 11시 정도까지 열고, 회를 먹을 수 있는 양념센터는 24시간 영업한다.","Mapo Agricultural and Fishery Products Market is managed by Mapo-gu Facilities Management Corporation, a public corporation wholly invested by Mapo-gu, and each store is operated on lease. Mapo Agricultural and Fishery Products Market, which sells various fisheries products, fruits and vegetables at a low price, is located opposite Seoul World Cup Stadium in Seongsan-dong, and many tourists stop by the nearby park trail to eat raw fish right away. Mapo Agricultural and Fishery Products Market, a comprehensive city-type store representing Mapo-gu, has 72 stores selling vegetables and fruits and 50 shops selling marine products. Flatfish and rockfish, which are somewhat cheaper than other fish, are the most popular at the Hoe Center. Flatfish and rockfish cost 15,000 won to 30,000 won each. As well as sashimi, it is full of various seafood such as octopus, sea squirt, and sea cucumber, so you can taste a variety of seafood on your family's outing. The store that sells sashimi will open until around 11 p.m., while the seasoning center where sashimi can be eaten will be open 24 hours a day.",02-309-0419,http://www.traveli.co.kr/repository/look/contents/look_p91_m.jpg
전통시장,양재시장,Yangjae Market,127.03789065,37.484272036,Seocho-gu,Yangjae1-dong,"양재역 5번 출구로 나오다 양재동 우체국 골목길로 들어가면 양재종합시장이 있다. 건물 전체가 종합시장이 아니며, 건물 1층과 지하 1층만 양재종합시장이다. 1978년에 처음 문을 열었고, 1층에는 족발, 국수, 떡집이 있으며, 지하 1층에는 방앗간과 고깃집 등이 있다. 약 16개의 점포들로 구성된 소형시장인 이곳은 오전 8시에 개점하며 오후 10시에 폐점한다. 정확한 정기휴일에 대해서는 알기 어렵다.","If you come out of exit 5 of Yangjae Station and go into the alleyway of Yangjae-dong Post Office, you will find Yangjae General Market. The entire building is not a general market, and only the first floor of the building and the first basement is Yangjae General Market. First opened in 1978, there are jokbal, noodle and rice cake shops on the first floor, and mill and meat restaurants on the first basement floor. The small market, consisting of about 16 stores, opens at 8 a.m. and closes at 10 p.m. It is difficult to know about the exact regular holidays.",02-573-2132,http://www.traveli.co.kr/repository/look/contents/look_p103_m.jpg
전통시장,신원시장,Sinwon Market,126.92611004,37.483386434,Gwanak-gu,Sinwon-dong,"신원시장은 도림천 주변에서 노점상을 중심으로 시작해 오늘날의 전통시장 모습으로 발전했다. 주택가 사이에 위치해 있고 인근에 신림역과 도림천이 있어 하루 유동인구가 평균 1만 명에 달하는 대형 상권이다. 대형마트처럼 편안하고 안락한 시설에서 상품을 구입할 수 있도록 아케이드를 설치했기 때문에 비가 와도 우산 없이 편리하게 시장을 이용할 수 있다. 무료배송서비스와 공동 쿠폰 발행, 공영주차장 운영 등 서비스 개선을 위한 다양한 방법을 도입했다. 2008년 '신림1동인정시장'에서 '신원시장'으로 공식명칭을 바꿔 달았다.","Shinwon Market started with street vendors around Dorimcheon Stream and developed into a traditional market today. Located between residential areas and nearby Sillim Station and Dorimcheon Stream, it is a large commercial area with an average daily floating population of 10,000. Since arcades have been installed so that products can be purchased in comfortable and comfortable facilities like large discount stores, the market can be conveniently used without umbrellas even if it rains. It introduced various methods to improve the service, including free delivery services, issuing joint coupons and operating public parking lots. It changed its official name from ""Shillim 1-dong Injeong Market"" to ""Shinwon Market"" in 2008.",02-854-5453,http://www.traveli.co.kr/repository/look/contents/look_p35_m.jpg
전통시장,관악신사시장,Gwanak Sinsa Market,126.91697572,37.486303239,Gwanak-gu,Sinsa-dong,"관악구에서 가장 큰 규모를 자랑하는 대표시장이다. 2호선 신대방역 1번 출구에서 가까워 교통이 편리하다. 104개의 점포를 보유하고 있으며 원산지 표시 시범시장으로 선정되어 지역주민에게 항상 정직하고 신선한 정육, 채소, 과일, 생선을 제공하기 위해 노력하고 있다. 관악신사시장은 공용쿠폰제를 시행하고 있는데, 구매점포에서 구매금액에 따라 쿠폰을 받아 이를 현금처럼 사용할 수 있다. 매월 첫째, 셋째 수요일에 정기적인 세일 행사를 진행하며, 송편 만들기, 과일채소 데코레이션 창작대회 등 재래시장의 특성을 살리는 행사를 열어 지역주민에게 더욱 친근하게 다가가고 있다.","It is the largest market in Gwanak-gu. Traffic is convenient as it is close to Exit 1 of Sindaebang Station on Line 2. It has 104 stores and has been selected as a pilot market for country of origin marking, making efforts to provide local residents with honest and fresh meat, vegetables, fruits and fish at all times. Gwanak Sinsa Market has a public coupon system, which allows customers to receive coupons according to the amount of their purchases at the store and use them like cash. Regular sales events are held on the first and third Wednesday of every month, and events such as songpyeon making and fruit vegetable decoration creation competitions are held to make more familiar to local residents.",02-855-1994,http://www.traveli.co.kr/repository/look/contents/L20151102185943m0.jpg
전통시장,펭귄시장,Jowon-dong Penguin Market,126.91099619,37.482864243,Gwanak-gu,Jowon-dong,"관악신사시장에 이어 관악구에서 두 번째로 큰 재래시장이다. 주변에 펭귄아파트가 있어서 펭귄시장이라는 이름 지어졌다고 한다. 서울의 재래시장이 공사를 통해 현대화 되고 있는 것에 반해, 펭귄시장은 아직 보통의 재래시장처럼 난전의 형태를 띠고 있다. 하지만 깔끔하게 유지되고 있기 때문에 쇼핑에는 무리가 없으며, 오히려 옛 시장의 정취를 느낄 수 있어 더욱 매력적이다. 펭귄시장에는 특히 먹거리가 유명한데, 돼지머리 같은 고사음식과 족발 가게 등이 많다.","It is the second-largest traditional market in Gwanak-gu after Gwanak Sinsa Market. It was named Penguin Market because there was a penguin apartment nearby. While traditional markets in Seoul are being modernized through construction, penguin markets are still in the form of a difficult battle, just like ordinary traditional markets. However, as it is kept clean, shopping is not difficult, and it is more attractive because it can feel the atmosphere of the old market. Penguin Market is especially famous for its food, including old-fashioned food like pig's head and pig's feet shops.",02-839-3004,http://www.traveli.co.kr/repository/look/contents/look_p43_m.jpg
전통시장,이촌종합시장,Ichon General Market,126.97488721,37.520575162,Yongsan-gu,Ichon1-dong,"용산구의 대표적인 재래시장이다. 1967년에 개장하여 지금까지 이촌동과 인근 지역민에게 생필품을 제공해 왔다. 90여 개의 상점이 운영되고 있으며 수산물, 축산물, 반찬류, 의류 등 다양한 품목을 판매하고 있다. 고객 편의와 시장 활성화를 위해 환경개선에 힘쓰고 있으며, 명절에는 다양한 이벤트를 시행하고 있다. 매일 오전 9시부터 오후 8시까지 점포를 운영한다.","It is a typical traditional market in Yongsan-gu. It was opened in 1967 and has provided daily necessities to the residents of Ichon-dong and nearby areas. More than 90 shops are in operation and sell a variety of items, including fisheries, livestock products, side dishes and clothing. It is striving to improve the environment for customer convenience and market revitalization, and is conducting various events during the holidays. The store is open from 9 a.m. to 8 p.m. every day.",,
전통시장,이태원시장,Itaewon Jeil Market,126.98828687,37.538993723,Yongsan-gu,Itaewon2-dong,"용산구 이태원동에 위치하고 있는 이태원시장은 1960년에 개설되었고 상가건물형 시장이다. 의류 및 잡화 등이 주 취급품목이며, 주차장이 마련되어 있어 차량 방문 고객들에게 편의를 제공하고 있다. 시장에 위치한 점포 수는 80여 개로 시장규모는 소형시장에 속하며 종사자 수는 110여 명으로 구성되어 있다. 오전 9시에 개점하여 오후 8시에 폐점하는데 정확한 정기휴일은 알기 어렵다.","Located in Itaewon-dong, Yongsan-gu, Itaewon Market was opened in 1960 and is a commercial building-type market. Clothing and miscellaneous goods are the main items to handle, and parking lots are provided to provide convenience to visiting customers. The number of stores located in the market is about 80 and the size of the market belongs to the small market and the number of workers is about 110. It opens at 9 a.m. and closes at 8 p.m., but it's hard to know the exact regular holidays.",02-794-5682,http://www.traveli.co.kr/repository/look/contents/L20150601105057m1.jpg
전통시장,금남시장,Geumnam Market,127.02271403,37.548445405,Seongdong-gu,Guemho2.3ga-dong,"금호동의 랜드마크로 자리 잡은 50년 전통의 금남시장은 전형적인 골목형 시장으로 옛 맛과 정을 느낄 수 있는 친서민적인 시장이다. 성동구 독서당로에 위치하고 있으며 2005년부터 상인회를 중심으로 아케이드 설치, 조명등 교체와 같은 시설현대화사업을 실시해 고객들에게 쾌적한 쇼핑환경을 제공한다. 오전 9시에 개점하여 오후 10시에 폐점하는데, 주차시설이 마련되어 있어 차량 방문이 편리하다.","Geumnam Market, a 50-year-old landmark of Geumho-dong, is a typical alley-type market where you can feel the old taste and affection. It is located in Dokdang-ro, Seongdong-gu, and since 2005, it has carried out facility modernization projects such as installing arcades and replacing lights, focusing on merchants' associations, to provide customers with a pleasant shopping environment. It opens at 9 a.m. and closes at 10 p.m., and there are parking facilities, making it convenient to visit vehicles.",02-2252-5302,http://www.traveli.co.kr/repository/look/contents/look_p105_m.jpg
전통시장,뚝도시장,Ttukdo Market,127.05401634,37.537954809,Seongdong-gu,Seongsu2ga1-dong,"뚝섬을 옛날에 뚝도라고 불렀는데 이곳에 있던 경마장이 과천으로 옮기기 이전인 1960년대부터 형성된 시장이다. 성동구 성수로에 위치하고 있으며, 오전 9시에 개점하여 오후 10시에 폐점한다. 개설된 지 40여 년이 된 뚝도시장은 약 180여 개의 점포로 구성된 중형시장으로 연간 7만여 명이 이용하는 소매시장이다. 오래된 역사만큼이나 낡고 불편했던 시설들을 리모델링하여 깨끗하고 현대적인 시장으로 탈바꿈했다.","Ttukseom used to be called Ttukdo, which was established in the 1960s before the horse racecourse moved to Gwacheon. Located in Seongdong-gu Seongsu-ro, it opens at 9 a.m. and closes at 10 p.m. Ttuk City Market, which has been opened for more than 40 years, is a medium-sized market consisting of about 180 stores and is a retail market used by 70,000 people annually. The facilities, which were as old and uncomfortable as old history, have been remodeled into clean and modern markets.",02-464-4426,http://www.traveli.co.kr/repository/look/contents/look_p108_m.jpg
전통시장,마장축산물시장,Majang Livestock Products Market,127.03840479,37.569740914,Seongdong-gu,Majang-dong,"1963년 도축장이 들어서면서 자연스럽게 형성된 마장동 우시장이 1998년 주변 개발로 도축장이 타 지역으로 이전하면서 현재의 마장축산물시장으로 발전했다. 특히 이 시장은 수도권 축산물유통의 60~70% 담당하고 있는 축산물 전문 도·소매시장으로, 1500여 개 점포에 연간 이용객 수가 200만 명에 달하는 국내 최대의 축산물시장이다. 주변에 청계천을 끼고 있어 관광과 쇼핑을 함께할 수 있는 곳으로, 확실한 정품 · 정확한 정량·저렴한 정찰가격으로 승부하는 상인들과 국내산 한우의 깊은 맛을 동시에 느낄 수 있는 곳이다. 근처 먹자골목에선 신선한 고기를 저렴한 가격에 먹을 수 있다.","The Majang-dong cattle market, which was naturally formed when the slaughterhouse was built in 1963, developed into the current market for Majang livestock products in 1998 when the slaughterhouse was relocated to another region due to development around it. In particular, this market is a wholesale and retail market specializing in livestock products, which is responsible for 60-70% of the distribution of livestock products in the Seoul metropolitan area, and is the largest livestock market in Korea with an annual number of 2 million users at 1,500 stores. It is a place where visitors can enjoy sightseeing and shopping together with Cheonggyecheon Stream, where they can enjoy the deep taste of Korean beef with merchants who compete with authentic, accurate quantity, and low prices. You can eat fresh meat at a reasonable price at a nearby food alley.",02-2281-4446,http://www.traveli.co.kr/repository/look/contents/look_p106_m.jpg
전통시장,노룬산시장,Norunsan Market,127.06487703,37.536327542,Gwangjin-gu,Jayang4-dong,"옛날 뚝제방이 없을 때 이 일대가 구릉인 잔디밭이었는데, 가을이 되면 누렇게 물들기 때문에 누런 잔디산, 즉 노룬산으로 불리게 되었다고 한다. 노룬산 시장은 이러한 지역적 특성을 반영하여 이름 지어졌으며, 1970년에 개설되어 광진구에서 가장 역사 깊은 시장이다. 자양동이 상권이 살아있는 동네인 만큼, 노룬산 시장 역시 활발하게 운영되고 있으며, 추억의 떡볶이와 직접 만든 전통 과자 등 아이들이 좋아할 만한 먹거리로 유명하디. 2, 7호선 건대입구역에서 걸어서 5~7분 거리이므로 온 가족이 노룬산시장으로 먹거리 투어를 떠나는 것도 좋을 듯하다.","In the past, when there was no ttukjebang, this area was a hilly grassland, but it became called yellow grass mountain, or Norun mountain, because it became yellow in autumn. Norunsan Market was named to reflect these regional characteristics, and was opened in 1970 and is the most historic market in Gwangjin-gu. As Jayang-dong is a neighborhood where the business district is still alive, Norunsan Market is also actively operated, and it is famous for its children's favorite foods such as tteokbokki from old memories and traditional snacks made by themselves. Since it is a 5-7 minute walk from Konkuk University Station on Line 2 and 7, it would be good for the whole family to go on a food tour to Norunsan Market.",02-463-7521,http://www.traveli.co.kr/repository/look/contents/look_p49_m.jpg
전통시장,신성종합시장,Sinsung Market,127.08872192,37.55803331,Gwangjin-gu,Junggok4-dong,"중곡동 근처에는 아직 대형마트가 많지 않아서 다른 지역보다 재래시장이 많이 발달한 편이며, 신성종합시장 역시 그중 하나이다. 중곡사거리에 위치한 신성종합시장은 규모는 크지 않지만 반찬집, 정육점, 과일가게, 생선가게 등 다양한 식재료를 취급하고 있으며, 더불어 닭강정집, 빵집, 만두집, 순댓국밥집 등 서민적인 먹거리가 풍부하다. 특히 네다섯 개의 칼국수집이 옹기종기 모여 하나의 특화구역을 이룬 ‘할머니 옛날 손칼국수’가 별미라고 하니, 찾아가 보는 것은 어떨까?","As there are not many large discount stores near Junggok-dong, traditional markets are more developed than other regions, and Shinsung General Market is one of them. The Shinsung General Market, located on Junggok Intersection, is not big in size, but it deals with various food ingredients such as side dishes, butcher shops, fruit shops, and fish shops. In addition, there are abundant common foods such as chicken gangjeong restaurant, bakery, dumpling restaurant, and sundae rice soup restaurant. In particular, since four or five kalguksu restaurants huddled together to form a special district, how about visiting the old kalguksu place?",02-444-5662,http://www.traveli.co.kr/repository/look/contents/look_p51_m.jpg
전통시장,중곡제일골목시장,Junggok Jeil Market,127.08153921,37.56382649,Gwangjin-gu,Junggok1-dong,"광진구에서 규모가 가장 큰 상설 재래시장이며, 수도권의 대표적인 상설 재래시장이기도 하다. 깨끗한 시설과 다양한 이벤트로 많은 사람들이 이용하고 있으며, 전통시장 최초로 자체 상품권을 개발하여 온누리 상품권의 모델이 되기도 했다. 재래시장 활성화를 위해 다양한 행사와 이색 마케팅을 적극 반영하는 시장이기도 한데, 매주 금요일에는 ‘금요대박장터’, 매년 ‘주부팔씨름대회’를 개최하여 지역민과 함께하는 시장문화를 만들어나가고 있다. 친환경농산물 직거래 시범시장으로 선정될 정도이니 식품의 신뢰도는 말할 것도 없다. 과일과 해물, 고춧가루로 맛을 내어 유명한 마약 떡볶이와 30년 가까이 주민과 함께한 순댓국집까지 다채로운 먹거리가 가득하다.","It is the largest permanent traditional market in Gwangjin-gu and one of the most representative permanent traditional markets in the Seoul metropolitan area. It is used by many people with clean facilities and various events, and developed its own gift certificates for the first time in a traditional market, becoming a model for Onnuri gift certificates. It is also a market that actively reflects various events and exotic marketing to revitalize traditional markets, and it is creating a market culture with local people by holding ""Friday Park Market"" every Friday and ""Household Arm wrestling Contest"" every year. Not to mention the reliability of food products, they have been selected as a pilot market for direct trading of eco-friendly agricultural products. There are a variety of foods, including Tteokbokki, a famous drug that is seasoned with fruits, seafood, and red pepper powder, and Sundaegukjip, which has been with the residents for nearly 30 years.",02-466-5003,http://www.traveli.co.kr/repository/look/contents/look_p53_m.jpg
전통시장,광성시장,KwangSung Market,127.08104986,37.563466429,Gwangjin-gu,Junggok1-dong,"광진구 중곡동에 위치한 소형시장이다. 광성시장은 80년 6월 18일 개장 이래 지역주민들의 애환이 깃든 시장이었으나, 96년 유통시장 개방 이후 대형 할인점이 등장하면서 매출이 감소하고 규모가 축소되었다. 하지만 재래시장 현대화 사업을 통해 시장 내부를 재정비하여 다시 지역주민들이 찾는 시장으로 거듭날 수 있었다. 중저가 의류를 비롯해 채소, 반찬, 먹거리 등을 저렴하게 판매하고 있다.","It is a small market located in Junggok-dong, Gwangjin-gu. Gwangseong Market has been a market of local residents since its opening on June 18, 1980, but since the opening of the retail market in 1996, sales have decreased and the size of the market has decreased due to the emergence of large discount stores. However, through the modernization of traditional markets, the market was reorganized to become a market visited by local residents. It sells low and medium-priced clothes, vegetables, side dishes, and food at low prices.",02-467-5201,http://www.traveli.co.kr/repository/look/contents/L20150529150743m3.jpg
전통시장,화양제일골목시장,Hwayang Jeil Golmok Market,127.06931889,37.543460937,Gwangjin-gu,Hwayang-dong,광진구 아차산로29길 59에 위치한 화양골목시장. 1980년대 초 이곳에 사람들이 시장을 형성했다. 있을 건 다 있고 없을 건 없는 화양시장은 광진구 내에서는 꽤 큰 시장이다. 가격도 저렴하고 상인들의 인심도 훈훈해 많은 사람들이 이곳에서 물건을 산다. 오전 9시에 개점하여 오후 10시에 폐점한다. 현재 시장 내 개방화장실이 없지만 구청의 현대화 사업으로 인해 최신 시설의 화장실이 들어설 예정이다.,"Hwayang Alley Market, located on 59 Acha San-ro 29-gil, Gwangjin-gu. People formed a market here in the early 1980s. The Hwayang Market, which has everything but nothing, is quite a big market in Gwangjin-gu. Many people buy things here because it is cheap and the merchants are warm-hearted. It opens at 9 a.m. and closes at 10 p.m. There are currently no open toilets in the market, but due to the district office's modernization project, toilets for the latest facilities will be built.",02-465-6221,http://www.traveli.co.kr/repository/look/contents/look_p44_m.jpg
전통시장,영도시장,Yongdu Market ,127.02952467,37.578400227,Dongdaemun-gu,Yongsin-dong,"서울시 동작구 상도동에 위치한 상설·종합 상가건물형시장으로 1968년에 문을 열었다. 약 60여개의 점포로 이루어진 중형시장이다. 지하철7호선 장승배기 역과 인접해 있으며, 떡볶이 등 먹을거리가 입소문을 타고 손님을 불러 들이고 있다. 오전 9시에 개점하여 오후 9시에 폐점하며, 정확한 정기휴일은 알기 어렵다. 화장실이 마련되어 있어 시장을 방문한 고객들에게 편의를 제공한다.","Located in Sangdo-dong, Dongjak-gu, Seoul, it was opened in 1968 as a permanent and comprehensive commercial building market. It is a medium-sized market with about 60 stores. It is adjacent to Jangseungbaegi Station on Subway Line 7, and food items such as tteokbokki are attracting customers through word of mouth. It opens at 9 a.m. and closes at 9 p.m., and the exact regular holidays are hard to know. There is a toilet in place to provide convenience to customers who visit the market.",,http://www.traveli.co.kr/repository/look/contents/look_p86_m.jpg
전통시장,경동시장,Gyeongdong Market,127.03868156,37.579604913,Dongdaemun-gu,Jegi-dong,"경동시장은 서울시 동대문구 고사자로에 위치한 대지 9,323㎡ 건물 면적 30,300㎡ 규모의 4층 3개 동의 종합상가다. 이 시장은 인삼, 한약재, 더덕, 도라지, 건어물, 수산물 등 농·수산물 전반에 걸쳐 다양한 업종으로 구성됐다. 주변 지역은 물론 전국으로 상품이 유통되고 있어, 명실상부한 대한민국 대표 전통시장으로 역할을 담당하고 있는 곳이다. 오전 4시에 개점하며, 오후 7시에 폐점한다.","Gyeongdong Market is a four-story three-way shopping mall with an area of 30,300 square meters of land located in Gosa-ro, Dongdaemun-gu, Seoul. The market consists of various industries including ginseng, herbal medicine, deodeok, balloon flower, dried fish, and marine products. As products are distributed throughout the country as well as the surrounding areas, it serves as Korea's representative traditional market in name and reality. It opens at 4 a.m. and closes at 7 p.m.",02-967-8721,http://www.traveli.co.kr/repository/look/contents/look_p71_m.jpg
전통시장,전농로터리시장,Jeonnong Rotary Market,127.05707018,37.578029726,Dongdaemun-gu,Jeonnong1-dong,"전농동에서 40년 동안 지역주민과 함께한 시장이다. 단층건물 종합상가형태의 시장으로 형성되어 있으며, 100개에 달하는 점포가 지역주민에게 다양한 상품을 제공하고 있다. 식료품뿐만 아니라 이불, 한복, 의류, 아동복 등의 생활용품과 가정용품을 판매하는 점포가 많다. 오전 8시부터 오후 10시까지 점포를 운영하여, 오랜 시간 고객을 맞이하고 있다.","It is a market with local residents for 40 years in Jeonnong-dong. The market is formed in the form of a single-story building complex, and as many as 100 stores provide various products to local residents. In addition to groceries, many stores sell household items such as blankets, hanbok, clothing, and children's clothing. The store is open from 8 a.m. to 10 p.m., welcoming customers for a long time.",02-2212-4041,http://www.traveli.co.kr/repository/look/contents/look_p82_m.jpg
전통시장,전곡시장,Jeongok Market ,127.06855834,37.577879454,Dongdaemun-gu,Jangan2-dong,"1975년에 개장한 상가형 시장이다. 지하 1층부터 지상 2층 모두 시장으로 운영되고 있는데, 개장한 이래부터 지금까지 같은 형태를 유지하고 있다. 장안동과 그 인근에 거주하는 주민들이 주로 이용하며, 지금까지도 활발하게 운영되고 있다. 쌀, 잡곡, 야채, 정육, 생선, 제과 등 식료품 일체를 판매하며, 시장 내에 맛집이 많기로도 유명하다. 특히 칼국수, 막국수, 호떡이 맛있기로 입소문이 자자하니 직접 방문해 보는 것도 좋을 듯하다.","It is a commercial market that opened in 1975. Both the first basement floor and the second ground floor are operated as markets, and have remained the same since its opening. It is mainly used by residents living in Jangan-dong and its vicinity, and it is still actively operated until now. It sells all kinds of food such as rice, mixed grains, vegetables, meat, fish, and confectionery, and is also famous for its many restaurants in the market. Especially, Kalguksu, Makguksu, and Hotteok are famous for their delicious taste, so it would be a good idea to visit them in person.",02-2213-6457,http://www.traveli.co.kr/repository/look/contents/L20150601094756m1.jpg
전통시장,이경시장,Igyeong Market,127.06602367,37.594596117,Dongdaemun-gu,Hwigyeong1-dong,"동대문구 휘경동에 위치한 전통시장이다. 1974년에 개장하여 40년간 지역민과 함께 하였다. 주변에 대형마트가 많이 생기는 탓에 찾는 사람은 많이 줄었지만, 아직도 지역민에게 다양한 식료품과 먹거리를 제공하고 있다. 군데군데 문을 닫은 점포도 있으나, 현재 60개에 달하는 점포가 남아 있다. 오전 9시부터 22시까지 점포를 운영하며, 정기휴일은 정해져 있지 않다.","It is a traditional market located in Hwigyeong-dong, Dongdaemun-gu. It opened in 1974 and has been with local people for 40 years. Due to the large number of large discount stores around, the number of people looking for has decreased, but it still provides various food and food to locals. Some stores are closed, but as many as 60 stores remain. The store is open from 9 a.m. to 22 a.m., and regular holidays are not set.",02-966-6966,
